<?xml version="1.0" encoding="UTF-8"?>
<kml xmlns="http://www.opengis.net/kml/2.2"><Document>
<name>Brusque — Limite Municipal</name>
<description>Limite do município de Brusque/SC (OpenStreetMap admin_level=8, ODbL). © OpenStreetMap contributors</description>
<Style id="muni"><LineStyle><color>ff00b0ff</color><width>2.5</width></LineStyle><PolyStyle><color>2600b0ff</color></PolyStyle></Style>
<Placemark><name>Brusque</name><styleUrl>#muni</styleUrl>
<Polygon><outerBoundaryIs><LinearRing><coordinates>
-49.0214023,-27.1449238,0 -49.0209829,-27.1446418,0 -49.0203211,-27.1442934,0 -49.0189695,-27.1440031,0 -49.018424,-27.1441573,0 -49.0179628,-27.1443266,0 -49.0164715,-27.1446916,0 -49.0160054,-27.1449155,0 -49.0154089,-27.1446335,0 -49.0139175,-27.1436216,0 -49.0130879,-27.142817,0 -49.012277,-27.1423442,0 -49.0112424,-27.1422115,0 -49.010478,-27.1424272,0 -49.0092477,-27.1423857,0 -49.0088748,-27.1427092,0 -49.0086418,-27.1432732,0 -49.0076444,-27.1437294,0 -49.006992,-27.1438787,0 -49.005976,-27.1438124,0 -49.0052396,-27.1437211,0 -49.0045126,-27.1432981,0 -49.003944,-27.1431239,0 -49.0035245,-27.1432317,0 -49.0030678,-27.1436796,0 -49.0024433,-27.144169,0 -49.0017722,-27.1452141,0 -49.0012316,-27.1461099,0 -49.0002435,-27.1469891,0 -48.9989101,-27.1474974,0 -48.9980717,-27.1472213,0 -48.9974099,-27.1465827,0 -48.9967429,-27.1459554,0 -48.9957012,-27.1456475,0 -48.9944865,-27.1454268,0 -48.9931782,-27.1455376,0 -48.992713,-27.1455939,0 -48.9921941,-27.1458889,0 -48.9917614,-27.1460684,0 -48.9910343,-27.1461597,0 -48.9899786,-27.1460752,0 -48.9892383,-27.1459702,0 -48.9884444,-27.1457028,0 -48.9880474,-27.1454164,0 -48.9879126,-27.1452203,0 -48.9879401,-27.144414,0 -48.9882727,-27.1438125,0 -48.9884825,-27.1435572,0 -48.9884506,-27.143279,0 -48.9878764,-27.1429667,0 -48.9871426,-27.1424045,0 -48.986613,-27.1418481,0 -48.9861269,-27.141397,0 -48.9856549,-27.1408624,0 -48.9852901,-27.1405569,0 -48.984847,-27.1401885,0 -48.9843606,-27.139744,0 -48.9838852,-27.1393047,0 -48.9833144,-27.139158,0 -48.9829384,-27.1392016,0 -48.9827342,-27.1394362,0 -48.9829019,-27.1398127,0 -48.9827305,-27.1402865,0 -48.9821143,-27.1411584,0 -48.981447,-27.1414963,0 -48.9807814,-27.1418765,0 -48.98035,-27.1423009,0 -48.9804336,-27.1427444,0 -48.980715,-27.143067,0 -48.9812594,-27.1434501,0 -48.9814942,-27.1437635,0 -48.9813679,-27.1441971,0 -48.981007,-27.1443979,0 -48.9804655,-27.144438,0 -48.9792473,-27.1441088,0 -48.9787641,-27.1440603,0 -48.9784352,-27.1440847,0 -48.9781555,-27.1442012,0 -48.978125,-27.1442863,0 -48.9780201,-27.1445785,0 -48.9781194,-27.1448917,0 -48.9782367,-27.1452812,0 -48.9782954,-27.1455582,0 -48.9782367,-27.145771,0 -48.9780374,-27.1460179,0 -48.9774967,-27.1461885,0 -48.9768894,-27.1462566,0 -48.976235,-27.146247,0 -48.9759672,-27.1460641,0 -48.9758183,-27.1458272,0 -48.9757236,-27.1455622,0 -48.9758636,-27.1451005,0 -48.9762515,-27.1448717,0 -48.9766777,-27.1447112,0 -48.97731,-27.1441396,0 -48.9773579,-27.1437528,0 -48.9771326,-27.1435129,0 -48.9771084,-27.1419578,0 -48.977,-27.135,0 -48.982,-27.121,0 -48.971,-27.117,0 -48.9691994,-27.1160131,0 -48.9657799,-27.1128361,0 -48.9611609,-27.111819,0 -48.9581343,-27.1109592,0 -48.9571211,-27.1097655,0 -48.956632,-27.1079942,0 -48.95501,-27.1062161,0 -48.953,-27.103,0 -48.9494451,-27.0961883,0 -48.9511747,-27.0880355,0 -48.9510243,-27.0857157,0 -48.9507832,-27.085181,0 -48.9493881,-27.0846776,0 -48.9476749,-27.0846466,0 -48.9464638,-27.0841422,0 -48.9463575,-27.0838674,0 -48.9475152,-27.0824599,0 -48.9483099,-27.0818097,0 -48.9497122,-27.0809306,0 -48.9508725,-27.0799273,0 -48.9520315,-27.0770426,0 -48.9522022,-27.0761832,0 -48.9520056,-27.0751634,0 -48.951348,-27.0745291,0 -48.9505852,-27.073239,0 -48.9506517,-27.0721003,0 -48.9507031,-27.0710758,0 -48.950896,-27.0704653,0 -48.9506593,-27.0694948,0 -48.9498499,-27.0686098,0 -48.9494046,-27.0683068,0 -48.946317,-27.0674612,0 -48.9450337,-27.0662928,0 -48.944837,-27.066439,0 -48.9438692,-27.0654323,0 -48.9422681,-27.0636728,0 -48.9417494,-27.0632747,0 -48.9393983,-27.061559,0 -48.9382725,-27.0610409,0 -48.936254,-27.060725,0 -48.9358328,-27.0606536,0 -48.9354209,-27.0604325,0 -48.9351019,-27.060073,0 -48.9349697,-27.0595804,0 -48.9349483,-27.0592154,0 -48.939,-27.054,0 -48.935,-27.049,0 -48.93,-27.05,0 -48.9277911,-27.0482329,0 -48.925,-27.046,0 -48.935,-27.033,0 -48.935,-27.028,0 -48.9269966,-27.0199967,0 -48.926,-27.019,0 -48.918,-27.02,0 -48.913,-27.02,0 -48.909,-27.011,0 -48.895,-27.011,0 -48.8889664,-27.0032579,0 -48.8884388,-27.0025725,0 -48.888,-27.002,0 -48.883,-27.001,0 -48.8818755,-26.9998942,0 -48.8788872,-26.998907,0 -48.871,-26.999,0 -48.866,-27.003,0 -48.869,-27.012,0 -48.855,-27.025,0 -48.8519741,-27.0266265,0 -48.8524435,-27.0269834,0 -48.8529612,-27.0276395,0 -48.8533045,-27.0280887,0 -48.8537444,-27.028471,0 -48.8540662,-27.0287864,0 -48.8544042,-27.0290755,0 -48.855182,-27.0298568,0 -48.8554234,-27.0302486,0 -48.8558365,-27.0307073,0 -48.8561476,-27.0310132,0 -48.8563729,-27.0312425,0 -48.8565124,-27.0315292,0 -48.8565661,-27.031835,0 -48.8566519,-27.0322077,0 -48.8566733,-27.0324945,0 -48.8569067,-27.0329183,0 -48.8571132,-27.0332877,0 -48.8572849,-27.0334214,0 -48.8578321,-27.033517,0 -48.8585938,-27.0335457,0 -48.8596962,-27.0333292,0 -48.8602434,-27.0332241,0 -48.8607905,-27.0331285,0 -48.8611446,-27.0331476,0 -48.8614262,-27.0331443,0 -48.8622175,-27.0331476,0 -48.8627861,-27.0332145,0 -48.8631616,-27.0333101,0 -48.8637092,-27.0334486,0 -48.8637543,-27.033597,0 -48.8637567,-27.0337141,0 -48.8638165,-27.0338548,0 -48.8638261,-27.0339357,0 -48.8637567,-27.0340167,0 -48.8635941,-27.0340401,0 -48.8634529,-27.0340465,0 -48.8632066,-27.0341552,0 -48.8630385,-27.0342627,0 -48.8629668,-27.0344054,0 -48.8628822,-27.034611,0 -48.8627419,-27.034855,0 -48.8627371,-27.0350617,0 -48.8627656,-27.0353232,0 -48.8629246,-27.0356727,0 -48.8628772,-27.0357481,0 -48.8628772,-27.0358776,0 -48.8628738,-27.0361397,0 -48.8629753,-27.0363718,0 -48.8630607,-27.0365863,0 -48.8630956,-27.0367439,0 -48.8631763,-27.0376933,0 -48.8638035,-27.0378484,0 -48.8641583,-27.0379895,0 -48.8641013,-27.0380629,0 -48.8640189,-27.0381555,0 -48.8640126,-27.0382147,0 -48.8640395,-27.0383445,0 -48.8641298,-27.0383817,0 -48.8641393,-27.0384212,0 -48.8641067,-27.0386574,0 -48.8640999,-27.0387925,0 -48.8641234,-27.0389743,0 -48.8639784,-27.0391203,0 -48.8638094,-27.039266,0 -48.8636027,-27.0394357,0 -48.8633144,-27.0394385,0 -48.8631607,-27.0394464,0 -48.8631012,-27.0394732,0 -48.8630262,-27.0395457,0 -48.8630104,-27.0396388,0 -48.8630009,-27.0398025,0 -48.8628583,-27.0399661,0 -48.8626936,-27.040031,0 -48.862532,-27.0400846,0 -48.8625415,-27.040347,0 -48.8626699,-27.0436197,0 -48.8626794,-27.0436621,0 -48.8626446,-27.0436931,0 -48.8624767,-27.0436874,0 -48.8619414,-27.0436169,0 -48.8616119,-27.043569,0 -48.8615517,-27.0435901,0 -48.8614773,-27.0435845,0 -48.8613849,-27.0436503,0 -48.8609969,-27.0438943,0 -48.8609256,-27.0439598,0 -48.8608232,-27.0439921,0 -48.8606616,-27.0439357,0 -48.8605856,-27.0438539,0 -48.8604621,-27.0439019,0 -48.8603829,-27.0438116,0 -48.8602214,-27.0438708,0 -48.8601422,-27.0438849,0 -48.8600281,-27.0438342,0 -48.8599584,-27.0438821,0 -48.8598381,-27.0438483,0 -48.8596829,-27.0438624,0 -48.8596195,-27.0439498,0 -48.8596581,-27.0440402,0 -48.859636,-27.0442941,0 -48.8596233,-27.0444887,0 -48.8595948,-27.0445536,0 -48.8594997,-27.0446467,0 -48.8592938,-27.0447596,0 -48.8590848,-27.0448583,0 -48.8589676,-27.0448894,0 -48.8586825,-27.0448329,0 -48.8585051,-27.044816,0 -48.8584259,-27.0448922,0 -48.8582707,-27.0451404,0 -48.8582105,-27.0452815,0 -48.858163,-27.0453944,0 -48.8579254,-27.0456088,0 -48.8577956,-27.0456906,0 -48.8576784,-27.045857,0 -48.8575928,-27.0459981,0 -48.8569783,-27.045874,0 -48.856789,-27.0458577,0 -48.8566367,-27.0458378,0 -48.8564888,-27.0458418,0 -48.8563903,-27.045746,0 -48.8561887,-27.0456902,0 -48.8560185,-27.0458178,0 -48.8558438,-27.0459216,0 -48.8555123,-27.0462088,0 -48.8553934,-27.0463239,0 -48.8554003,-27.0464442,0 -48.8553689,-27.0465879,0 -48.8552973,-27.0467036,0 -48.8551763,-27.0468432,0 -48.8551405,-27.0470267,0 -48.8550016,-27.0471385,0 -48.8549702,-27.0473539,0 -48.8549299,-27.0474936,0 -48.8548403,-27.0476172,0 -48.8548179,-27.0477688,0 -48.8547361,-27.047807,0 -48.8547582,-27.0479875,0 -48.8547234,-27.0481004,0 -48.8547677,-27.0482302,0 -48.8549673,-27.0483345,0 -48.8551444,-27.0483773,0 -48.8553952,-27.0483289,0 -48.8555375,-27.0484333,0 -48.8556072,-27.0485066,0 -48.855623,-27.0487154,0 -48.855623,-27.0489637,0 -48.8557054,-27.0490539,0 -48.8558796,-27.0490116,0 -48.8559873,-27.0490962,0 -48.8559176,-27.0492994,0 -48.8557814,-27.0493896,0 -48.8556705,-27.0493755,0 -48.8554931,-27.0494912,0 -48.8554013,-27.0494686,0 -48.8553062,-27.0493727,0 -48.8552302,-27.049336,0 -48.8551479,-27.0493868,0 -48.8551479,-27.0495307,0 -48.8551985,-27.0497677,0 -48.8550465,-27.0499539,0 -48.8548944,-27.0499369,0 -48.8547519,-27.0499228,0 -48.8546189,-27.0499821,0 -48.8545333,-27.0501401,0 -48.8545682,-27.0502219,0 -48.8546157,-27.0502755,0 -48.8545808,-27.0503827,0 -48.8546442,-27.0503996,0 -48.8546759,-27.0503686,0 -48.8547107,-27.0504278,0 -48.8547076,-27.0505096,0 -48.8548374,-27.0506422,0 -48.8549103,-27.0507353,0 -48.8549039,-27.0509018,0 -48.85498,-27.0510372,0 -48.8550085,-27.0511274,0 -48.8549705,-27.0512403,0 -48.855037,-27.051308,0 -48.8550085,-27.0514293,0 -48.8549388,-27.0515365,0 -48.8548818,-27.0516606,0 -48.8548818,-27.0517481,0 -48.8548976,-27.0518327,0 -48.8548754,-27.0519681,0 -48.8547994,-27.0520104,0 -48.8547836,-27.0521402,0 -48.8548754,-27.0521628,0 -48.85498,-27.0520838,0 -48.8550497,-27.0520923,0 -48.855075,-27.0521769,0 -48.8550908,-27.0523123,0 -48.8550592,-27.0524082,0 -48.854961,-27.0524223,0 -48.8548818,-27.0524421,0 -48.8547741,-27.0524392,0 -48.8546189,-27.0523659,0 -48.8544446,-27.0523687,0 -48.8543845,-27.0524787,0 -48.8542071,-27.0525464,0 -48.8540297,-27.0525972,0 -48.8539093,-27.0526819,0 -48.8537288,-27.0527693,0 -48.853545,-27.0528652,0 -48.8534896,-27.0529104,0 -48.8534342,-27.0529555,0 -48.853362,-27.0529873,0 -48.8532489,-27.0530644,0 -48.8531952,-27.0531322,0 -48.8530765,-27.053204,0 -48.8530272,-27.0532858,0 -48.85296,-27.0533277,0 -48.852893,-27.0533636,0 -48.8527606,-27.0534115,0 -48.8526935,-27.0535232,0 -48.852633,-27.0537147,0 -48.8524784,-27.0539401,0 -48.8524695,-27.053996,0 -48.8524004,-27.053996,0 -48.8523086,-27.0540977,0 -48.8522145,-27.0541077,0 -48.8520532,-27.0541037,0 -48.8520308,-27.0541715,0 -48.8519368,-27.0542054,0 -48.8518203,-27.0542253,0 -48.8517262,-27.0543151,0 -48.8517195,-27.0544527,0 -48.8517195,-27.0545465,0 -48.8518225,-27.0545485,0 -48.8518965,-27.0545565,0 -48.8519368,-27.0546622,0 -48.8518315,-27.0547599,0 -48.8517329,-27.0549155,0 -48.8517105,-27.0550093,0 -48.851715,-27.055135,0 -48.8517218,-27.0552649,0 -48.8516569,-27.0553185,0 -48.8515618,-27.0553538,0 -48.8515143,-27.0553453,0 -48.8514985,-27.0554031,0 -48.8514399,-27.0554215,0 -48.8512783,-27.0555625,0 -48.8512118,-27.0556302,0 -48.8510677,-27.0557882,0 -48.8510598,-27.0558742,0 -48.8509806,-27.0559264,0 -48.8508761,-27.0559701,0 -48.8508033,-27.0560366,0 -48.8508212,-27.0561383,0 -48.8508369,-27.0562121,0 -48.8507652,-27.0562181,0 -48.8507406,-27.056244,0 -48.8506936,-27.056228,0 -48.8506309,-27.0563417,0 -48.8505659,-27.0564395,0 -48.8505592,-27.0565412,0 -48.8506398,-27.0566928,0 -48.8506309,-27.0567447,0 -48.8505278,-27.0567447,0 -48.8504539,-27.0567786,0 -48.8504158,-27.0568644,0 -48.8504584,-27.0569781,0 -48.8504427,-27.0570319,0 -48.8503083,-27.0570638,0 -48.850165,-27.0570219,0 -48.8500395,-27.05699,0 -48.8499477,-27.057014,0 -48.8498111,-27.0570918,0 -48.8497976,-27.0571436,0 -48.8497551,-27.0571476,0 -48.8496968,-27.0571835,0 -48.849605,-27.0572354,0 -48.8495154,-27.0573271,0 -48.8495154,-27.057395,0 -48.8494773,-27.0575106,0 -48.8493945,-27.0575366,0 -48.8493004,-27.0575226,0 -48.8492981,-27.0575825,0 -48.8483744,-27.0595617,0 -48.8476756,-27.0607744,0 -48.847138,-27.0616999,0 -48.8465646,-27.0632956,0 -48.8458299,-27.0638701,0 -48.8456866,-27.0651147,0 -48.844934,-27.0675081,0 -48.8436166,-27.0678539,0 -48.841507,-27.068426,0 -48.839429,-27.0700281,0 -48.8385167,-27.0705697,0 -48.8378072,-27.0714723,0 -48.837,-27.073,0 -48.8257235,-27.073,0 -48.824,-27.073,0 -48.808,-27.089,0 -48.8047409,-27.0902675,0 -48.79,-27.096,0 -48.798,-27.104,0 -48.7977306,-27.1044041,0 -48.7943446,-27.1094832,0 -48.794,-27.11,0 -48.8023736,-27.1169781,0 -48.806,-27.12,0 -48.803,-27.127,0 -48.812,-27.135,0 -48.821,-27.138,0 -48.8235386,-27.1401761,0 -48.823585,-27.1402159,0 -48.842,-27.156,0 -48.8476622,-27.1578017,0 -48.864,-27.163,0 -48.8655,-27.1645,0 -48.867,-27.166,0 -48.864,-27.168,0 -48.872,-27.175,0 -48.8723773,-27.1746772,0 -48.8724977,-27.1742207,0 -48.8727815,-27.17398,0 -48.8728507,-27.1739213,0 -48.8729114,-27.1739517,0 -48.879,-27.177,0 -48.882,-27.183,0 -48.894,-27.182,0 -48.898,-27.19,0 -48.906,-27.189,0 -48.914,-27.197,0 -48.931,-27.201,0 -48.934,-27.203,0 -48.932,-27.205,0 -48.934,-27.212,0 -48.935,-27.212,0 -48.9351694,-27.212081,0 -48.958,-27.223,0 -48.971,-27.237,0 -48.986,-27.247,0 -48.9954547,-27.247,0 -48.996,-27.247,0 -49.004,-27.253,0 -49.021,-27.256,0 -49.023,-27.242,0 -49.008,-27.232,0 -49.008,-27.201,0 -48.9952828,-27.1894943,0 -48.987,-27.182,0 -48.9767922,-27.1611244,0 -48.989,-27.153,0 -48.9932106,-27.1540527,0 -49.005,-27.157,0 -49.007,-27.164,0 -49.0176459,-27.1638417,0 -49.0185594,-27.1625314,0 -49.0194728,-27.161387,0 -49.0202092,-27.1612626,0 -49.0214676,-27.1611713,0 -49.0222785,-27.1608562,0 -49.0224369,-27.1604001,0 -49.0221293,-27.1599025,0 -49.0213837,-27.1595044,0 -49.020377,-27.1592307,0 -49.0197432,-27.1587165,0 -49.019622,-27.1581692,0 -49.0196686,-27.1577047,0 -49.0202931,-27.1572818,0 -49.022148,-27.1563114,0 -49.0226554,-27.1557601,0 -49.0230335,-27.1553494,0 -49.0233318,-27.1547688,0 -49.0231919,-27.1543873,0 -49.0228682,-27.1540821,0 -49.0222878,-27.1537819,0 -49.0215235,-27.1535994,0 -49.0203677,-27.153475,0 -49.0199109,-27.1535331,0 -49.0197245,-27.1540141,0 -49.0198364,-27.1552416,0 -49.0197338,-27.1555235,0 -49.0191186,-27.1556977,0 -49.0184009,-27.1556645,0 -49.0177485,-27.1553245,0 -49.0170494,-27.1545698,0 -49.0161918,-27.1534584,0 -49.01553,-27.1521563,0 -49.01553,-27.1515425,0 -49.0153995,-27.1511195,0 -49.0147191,-27.1506966,0 -49.014514,-27.1502902,0 -49.0145327,-27.1499252,0 -49.014803,-27.149552,0 -49.0162384,-27.1486728,0 -49.0170494,-27.148001,0 -49.0178976,-27.147495,0 -49.0197245,-27.1469725,0 -49.0205821,-27.1467817,0 -49.0210667,-27.1464085,0 -49.0213743,-27.1454961,0 -49.0214023,-27.1449238,0
</coordinates></LinearRing></outerBoundaryIs>
</Polygon>
</Placemark></Document></kml>