{"type": "FeatureCollection", "features": [{"type": "Feature", "properties": {"nome": "Regi\u00e3o monitorada (Brusque + 28 cidades)", "tipo": "regiao_clima"}, "geometry": {"type": "Polygon", "coordinates": [[[-49.555982826666664, -27.063194046666666], [-49.548609418666665, -27.308922606666666], [-49.52718852266667, -27.450415342666666], [-49.52377431466666, -27.47038841466667], [-49.52213709866666, -27.473907902666664], [-49.403989642666666, -27.595856750666666], [-49.365821610666664, -27.618246222666667], [-49.24257815466667, -27.676595086666666], [-49.235238122666665, -27.679714734666664], [-49.073400922666664, -27.701721054666667], [-48.967340058666665, -27.68612785466667], [-48.95950005866667, -27.683887854666665], [-48.61342005866667, -27.584207854666666], [-48.523820058666665, -27.553967854666666], [-48.47678005866666, -27.453167854666667], [-48.470362906666665, -27.432181294666666], [-48.412865354666664, -27.200222014666664], [-48.40154853866667, -27.136186910666666], [-48.535970490666664, -26.732947934666665], [-48.54864844266667, -26.721116702666666], [-48.64454597866666, -26.659597454666667], [-48.795980058666665, -26.56948785466667], [-48.81502005866667, -26.560527854666667], [-48.82510005866667, -26.557167854666666], [-49.128550618666665, -26.541265198666665], [-49.14633330666666, -26.550802334666667], [-49.523980058666666, -26.97940785466667], [-49.555982826666664, -27.063194046666666]]]}}]}