{"type": "FeatureCollection", "features": [{"type": "Feature", "id": "ponte_estaiada_01", "geometry": {"type": "Point", "coordinates": [-48.917183059133905, -27.10060408287998]}, "properties": {"id": "ponte_estaiada_01", "nome_oficial": "Ponte Irineu Bornhausen", "nome_popular": "Ponte Estaiada", "comprimento_m": 110.0, "vao_livre_m": 80.0}}, {"type": "Feature", "id": "ponte_mario_olinger_02", "geometry": {"type": "Point", "coordinates": [-48.90759229139695, -27.090348787017223]}, "properties": {"id": "ponte_mario_olinger_02", "nome_oficial": "Ponte Mário Olinger", "nome_popular": "Ponte do Bombeiro", "comprimento_m": 115.0, "vao_livre_m": 45.0}}, {"type": "Feature", "id": "ponte_andrea_volkmann_03", "geometry": {"type": "Point", "coordinates": [-48.90630396682034, -27.093911223595814]}, "properties": {"id": "ponte_andrea_volkmann_03", "nome_oficial": "Ponte Arquiteta Andrea Patrícia Volkmann", "nome_popular": "Nova ponte do centro", "comprimento_m": 121.05, "vao_livre_m": 60.0}}, {"type": "Feature", "id": "ponte_pilolo_04", "geometry": {"type": "Point", "coordinates": [-48.93714542987192, -27.12183863275176]}, "properties": {"id": "ponte_pilolo_04", "nome_oficial": "Ponte José Germano Schaefer", "nome_popular": "Ponte do Pilolo"}}, {"type": "Feature", "id": "ponte_beira_rio_rio_branco_05", "geometry": {"type": "Point", "coordinates": [-48.94193812751301, -27.108421252624474]}, "properties": {"id": "ponte_beira_rio_rio_branco_05", "nome_oficial": "Ponte Beira Rio - Rio Branco", "nome_popular": "Ponte Ligação Nova Beira"}}, {"type": "Feature", "id": "ponte_arthur_schlosser_06", "geometry": {"type": "Point", "coordinates": [-48.91338116376324, -27.100381849925466]}, "properties": {"id": "ponte_arthur_schlosser_06", "nome_oficial": "Ponte Arthur Schlösser", "nome_popular": "Ponte do Terminal", "comprimento_m": 72.0, "vao_livre_m": 35.0}}, {"type": "Feature", "id": "ponte_maluche_07", "geometry": {"type": "Point", "coordinates": [-48.92752332605105, -27.09888756605798]}, "properties": {"id": "ponte_maluche_07", "nome_oficial": "Ponte Antônio Nicolau Maluche", "nome_popular": "Ponte do Maluche", "comprimento_m": 90.0, "vao_livre_m": 45.0}}, {"type": "Feature", "id": "ponte_joao_liberio_08", "geometry": {"type": "Point", "coordinates": [-48.88954210002013, -27.07022179403717]}, "properties": {"id": "ponte_joao_liberio_08", "nome_oficial": "Ponte João Libério Benvenutti", "nome_popular": "Ponte do Santos Dumont / Ponte da Bilu", "comprimento_m": 85.0, "vao_livre_m": 40.0}}, {"type": "Feature", "id": "ponte_trabalhador_09", "geometry": {"type": "Point", "coordinates": [-48.908309238755855, -27.08246413724469]}, "properties": {"id": "ponte_trabalhador_09", "nome_oficial": "Ponte do Trabalhador", "nome_popular": "Ponte da Santa Rita / Ponte do Trabalhador", "comprimento_m": 100.0, "vao_livre_m": 50.0}}, {"type": "Feature", "properties": {"id": "ponte_rio_branco_10", "nome_oficial": "Ponte do Rio Branco", "nome_popular": "Ponte do Rio Branco"}, "geometry": {"type": "Point", "coordinates": [-48.9516045655713, -27.137992276172092]}}, {"type": "Feature", "properties": {"id": "ponte_limoeiro_11", "nome_oficial": "Ponte do Limoeiro", "nome_popular": "Ponte do Limoeiro"}, "geometry": {"type": "Point", "coordinates": [-48.86138983195803, -27.033240040824978]}}, {"type": "Feature", "properties": {"id": "ponte_carlos_decker_12", "nome_oficial": "Ponte Carlos Decker", "nome_popular": "Ponte de arame"}, "geometry": {"type": "Point", "coordinates": [-48.99297978784664, -27.145513025710162]}}]}