{"type": "FeatureCollection", "features": [{"type": "Feature", "geometry": {"type": "Point", "coordinates": [-48.92307, -27.11973]}, "properties": {"nome": "Azambuja", "id": 8, "fonte": "CEMADEN"}}, {"type": "Feature", "geometry": {"type": "Point", "coordinates": [-48.90671, -27.06046]}, "properties": {"nome": "Bateas", "id": 11, "fonte": "CEMADEN"}}, {"type": "Feature", "geometry": {"type": "Point", "coordinates": [-48.908125, -27.115901]}, "properties": {"nome": "CEI - Prof.ª Helga Stoltemberg - NTE Brusque", "id": 43, "fonte": "CMID"}}, {"type": "Feature", "geometry": {"type": "Point", "coordinates": [-48.885821, -27.133466]}, "properties": {"nome": "CEI Adelina Zen – NTE Brusque", "id": 70, "fonte": "CMID"}}, {"type": "Feature", "geometry": {"type": "Point", "coordinates": [-48.890385, -27.072616]}, "properties": {"nome": "CEI Emília F. de Oliveira - NTE Brusque", "id": 68, "fonte": "CMID"}}, {"type": "Feature", "geometry": {"type": "Point", "coordinates": [-48.933504, -27.107652]}, "properties": {"nome": "CEI Hilda A. Eccel – NTE Brusque", "id": 74, "fonte": "CMID"}}, {"type": "Feature", "geometry": {"type": "Point", "coordinates": [-48.9076, -27.083701]}, "properties": {"nome": "CEI Sofia Dubiella - NTE Brusque", "id": 67, "fonte": "CMID"}}, {"type": "Feature", "geometry": {"type": "Point", "coordinates": [-48.904167, -27.14232]}, "properties": {"nome": "CEI Tia Laura - NTE Brusque", "id": 75, "fonte": "CMID"}}, {"type": "Feature", "geometry": {"type": "Point", "coordinates": [-48.919369, -27.083642]}, "properties": {"nome": "CEI Tia Lisa – NTE Brusque", "id": 72, "fonte": "CMID"}}, {"type": "Feature", "geometry": {"type": "Point", "coordinates": [-48.9255, -27.09768]}, "properties": {"nome": "Centro (Defesa Civil)", "id": 12, "fonte": "CEMADEN"}}, {"type": "Feature", "geometry": {"type": "Point", "coordinates": [-48.920209, -27.148401]}, "properties": {"nome": "CMEI Laura C. Leite - NTE Brusque", "id": 66, "fonte": "CMID"}}, {"type": "Feature", "geometry": {"type": "Point", "coordinates": [-48.878242, -27.053001]}, "properties": {"nome": "CMEI Marli T. B. Buss - NTE Brusque", "id": 65, "fonte": "CMID"}}, {"type": "Feature", "geometry": {"type": "Point", "coordinates": [-48.94314, -27.103757]}, "properties": {"nome": "EEB Joao Hassmann - NTE Brusque", "id": 61, "fonte": "CMID"}}, {"type": "Feature", "geometry": {"type": "Point", "coordinates": [-48.848861, -27.103338]}, "properties": {"nome": "EEF Alberto Pretti - NTE Brusque", "id": 59, "fonte": "CMID"}}, {"type": "Feature", "geometry": {"type": "Point", "coordinates": [-48.867917, -27.049904]}, "properties": {"nome": "EEF Angelo Dognini - NTE Brusque", "id": 58, "fonte": "CMID"}}, {"type": "Feature", "geometry": {"type": "Point", "coordinates": [-48.966892, -27.178051]}, "properties": {"nome": "EEF Cedro Alto - NTE Brusque", "id": 62, "fonte": "CMID"}}, {"type": "Feature", "geometry": {"type": "Point", "coordinates": [-48.907609, -27.164481]}, "properties": {"nome": "EEF Dr. Carlos Moritz - NTE Bruque", "id": 57, "fonte": "CMID"}}, {"type": "Feature", "geometry": {"type": "Point", "coordinates": [-48.990905, -27.148403]}, "properties": {"nome": "EEF Edith K. Zabel - NTE Brusque", "id": 56, "fonte": "CMID"}}, {"type": "Feature", "geometry": {"type": "Point", "coordinates": [-48.937718, -27.069092]}, "properties": {"nome": "EEF Georgina de C. R. da Luz -NTE Brusque", "id": 55, "fonte": "CMID"}}, {"type": "Feature", "geometry": {"type": "Point", "coordinates": [-48.891918, -27.081707]}, "properties": {"nome": "EEF Nova Brasília - NTE Brusque", "id": 53, "fonte": "CMID"}}, {"type": "Feature", "geometry": {"type": "Point", "coordinates": [-48.904957, -27.073584]}, "properties": {"nome": "EEF Oscar Maluche - NTE Brusque", "id": 54, "fonte": "CMID"}}, {"type": "Feature", "geometry": {"type": "Point", "coordinates": [-48.921021, -27.143006]}, "properties": {"nome": "EEF Paquetá - NTE Brusque", "id": 51, "fonte": "CMID"}}, {"type": "Feature", "geometry": {"type": "Point", "coordinates": [-48.935552, -27.12703]}, "properties": {"nome": "EEF Pe. Luiz Gonzaga Steiner - NTE Brusque", "id": 50, "fonte": "CMID"}}, {"type": "Feature", "geometry": {"type": "Point", "coordinates": [-48.903445, -27.050679]}, "properties": {"nome": "EEF Pe. Theodoro Becker - NTE Brusque", "id": 52, "fonte": "CMID"}}, {"type": "Feature", "geometry": {"type": "Point", "coordinates": [-48.932079, -27.157622]}, "properties": {"nome": "EEF Pe. Vendelino Wiemes - NTE Brusque", "id": 49, "fonte": "CMID"}}, {"type": "Feature", "geometry": {"type": "Point", "coordinates": [-48.876128, -27.128675]}, "properties": {"nome": "EEF Poço Fundo - NTE Brusque", "id": 77, "fonte": "CMID"}}, {"type": "Feature", "geometry": {"type": "Point", "coordinates": [-48.869624, -27.085058]}, "properties": {"nome": "EEF Pref. Alexandre Merico - NTE Brusque", "id": 47, "fonte": "CMID"}}, {"type": "Feature", "geometry": {"type": "Point", "coordinates": [-48.892136, -27.162134]}, "properties": {"nome": "EEF Prof. José Vieira Côrte - NTE Brusque", "id": 60, "fonte": "CMID"}}, {"type": "Feature", "geometry": {"type": "Point", "coordinates": [-48.856604, -27.084667]}, "properties": {"nome": "EEF Prof.ª Augusta D. de Souza - NTE Brusque", "id": 42, "fonte": "CMID"}}, {"type": "Feature", "geometry": {"type": "Point", "coordinates": [-48.91325, -27.066868]}, "properties": {"nome": "EEF Prof.ª Augusta Knorring - NTE Brusque", "id": 41, "fonte": "CMID"}}, {"type": "Feature", "geometry": {"type": "Point", "coordinates": [-48.93854, -27.170278]}, "properties": {"nome": "EEF Prof.ª Isaura G. Gevaerd - NTE Brusque", "id": 40, "fonte": "CMID"}}, {"type": "Feature", "geometry": {"type": "Point", "coordinates": [-48.950827, -27.132092]}, "properties": {"nome": "EEF Rio Branco - NTE Brusque", "id": 46, "fonte": "CMID"}}, {"type": "Feature", "geometry": {"type": "Point", "coordinates": [-48.88105, -27.048457]}, "properties": {"nome": "ETI Prof. Raul Amorim - NTE Brusque", "id": 69, "fonte": "CMID"}}, {"type": "Feature", "geometry": {"type": "Point", "coordinates": [-48.86548, -27.07021]}, "properties": {"nome": "Limeira", "id": 16, "fonte": "CEMADEN"}}, {"type": "Feature", "geometry": {"type": "Point", "coordinates": [-48.88996, -27.17248]}, "properties": {"nome": "Santa Luzia", "id": 6, "fonte": "CEMADEN"}}, {"type": "Feature", "geometry": {"type": "Point", "coordinates": [-48.9393, -27.1313]}, "properties": {"nome": "Souza Cruz", "id": 9, "fonte": "CEMADEN"}}]}