{"type":"FeatureCollection", "features": [
{"type":"Feature","geometry":{"type":"LineString","coordinates":[[-48.90758,-27.08251],[-48.90786,-27.08251]]},"properties":{"nome":"","cor":"#0F9D58"}},
{"type":"Feature","geometry":{"type":"LineString","coordinates":[[-48.90731,-27.08239],[-48.90758,-27.08251],[-48.90735,-27.08267]]},"properties":{"nome":"","cor":"#0F9D58"}},
{"type":"Feature","geometry":{"type":"LineString","coordinates":[[-48.92198,-27.0971],[-48.92168,-27.09694],[-48.92181,-27.09723],[-48.92198,-27.0971]]},"properties":{"nome":"Rótula","cor":"#0F9D58"}},
{"type":"Feature","geometry":{"type":"LineString","coordinates":[[-48.91146,-27.10162],[-48.91242,-27.10226]]},"properties":{"nome":"","cor":"#0F9D58"}},
{"type":"Feature","geometry":{"type":"LineString","coordinates":[[-48.9087,-27.09364],[-48.90709,-27.09362],[-48.9066,-27.09374],[-48.90607,-27.094],[-48.90581,-27.09414],[-48.90544,-27.0942],[-48.90329,-27.0942]]},"properties":{"nome":"","cor":"#0F9D58"}},
{"type":"Feature","geometry":{"type":"LineString","coordinates":[[-48.88856,-27.06993],[-48.88757,-27.06837],[-48.8869,-27.06683],[-48.88668,-27.06544],[-48.88618,-27.06467],[-48.8856,-27.06418]]},"properties":{"nome":"","cor":"#E65100"}},
{"type":"Feature","geometry":{"type":"LineString","coordinates":[[-48.92252,-27.10321],[-48.92451,-27.10297],[-48.92545,-27.10231],[-48.92686,-27.10212]]},"properties":{"nome":"AV BEPE ROSA (BEIRA RIO)","cor":"#E65100"}},
{"type":"Feature","geometry":{"type":"LineString","coordinates":[[-48.9178,-27.10136],[-48.91915,-27.10241],[-48.92035,-27.1029],[-48.92252,-27.10321]]},"properties":{"nome":"AV BEPE ROSA (BEIRA RIO)","cor":"#E65100"}},
{"type":"Feature","geometry":{"type":"LineString","coordinates":[[-48.90556,-27.09199],[-48.90579,-27.09349],[-48.90591,-27.09387],[-48.90621,-27.0944],[-48.90795,-27.09674],[-48.91282,-27.10037]]},"properties":{"nome":"AV BEPE ROSA - BERIA RIO","cor":"#F9A825"}},
{"type":"Feature","geometry":{"type":"LineString","coordinates":[[-48.91706,-27.09918],[-48.91475,-27.09563],[-48.91455,-27.09495]]},"properties":{"nome":"AV CONSUL CARLOS RENAUX","cor":"#0097A7"}},
{"type":"Feature","geometry":{"type":"LineString","coordinates":[[-48.92721,-27.0987],[-48.92619,-27.09706],[-48.92453,-27.09683],[-48.92198,-27.0971]]},"properties":{"nome":"AV CYRO GEVAERD","cor":"#0F9D58"}},
{"type":"Feature","geometry":{"type":"LineString","coordinates":[[-48.9196,-27.10544],[-48.92174,-27.10638]]},"properties":{"nome":"AV DOM JOAQUIM","cor":"#FFEA00"}},
{"type":"Feature","geometry":{"type":"LineString","coordinates":[[-48.89835,-27.12781],[-48.89797,-27.12839],[-48.89855,-27.13115],[-48.8998,-27.13304],[-48.89847,-27.13771],[-48.89849,-27.13883],[-48.89895,-27.14047],[-48.89995,-27.14258],[-48.90007,-27.14367]]},"properties":{"nome":"AV FLORIANÓPOLIS","cor":"#0F9D58"}},
{"type":"Feature","geometry":{"type":"LineString","coordinates":[[-48.92614,-27.10782],[-48.92791,-27.10842],[-48.93158,-27.11058]]},"properties":{"nome":"AV GERMANO FURBRINGER","cor":"#0F9D58"}},
{"type":"Feature","geometry":{"type":"LineString","coordinates":[[-48.91242,-27.10226],[-48.91553,-27.10364],[-48.9196,-27.10544]]},"properties":{"nome":"AV GETÚLIO VARGAS","cor":"#0097A7"}},
{"type":"Feature","geometry":{"type":"LineString","coordinates":[[-48.92771,-27.09918],[-48.92788,-27.09935],[-48.92796,-27.09949],[-48.9279,-27.10013],[-48.92686,-27.10212],[-48.92526,-27.1051]]},"properties":{"nome":"AV HUGO SCHLOSSER","cor":"#0097A7"}},
{"type":"Feature","geometry":{"type":"LineString","coordinates":[[-48.91711,-27.10089],[-48.91699,-27.10131],[-48.91553,-27.10364]]},"properties":{"nome":"AV LAURO MULLER","cor":"#0097A7"}},
{"type":"Feature","geometry":{"type":"LineString","coordinates":[[-48.91236,-27.09047],[-48.91198,-27.08231],[-48.91196,-27.08126]]},"properties":{"nome":"AV OTTO RENAUX","cor":"#0097A7"}},
{"type":"Feature","geometry":{"type":"LineString","coordinates":[[-48.91255,-27.09464],[-48.9125,-27.09341],[-48.91236,-27.09047]]},"properties":{"nome":"AV OTTO RENAUX","cor":"#0F9D58"}},
{"type":"Feature","geometry":{"type":"LineString","coordinates":[[-48.88887,-27.0701],[-48.88935,-27.07039],[-48.88983,-27.07081],[-48.89121,-27.0719],[-48.89498,-27.0747],[-48.89784,-27.07744]]},"properties":{"nome":"AV. BEIRA RIO","cor":"#E65100"}},
{"type":"Feature","geometry":{"type":"LineString","coordinates":[[-48.89786,-27.07745],[-48.89965,-27.07829],[-48.90434,-27.07972],[-48.90676,-27.08056],[-48.90747,-27.08105],[-48.90786,-27.08251],[-48.90869,-27.08531],[-48.90985,-27.08708],[-48.91007,-27.08825],[-48.90862,-27.08974],[-48.90756,-27.09004],[-48.90717,-27.09017],[-48.90589,-27.09055],[-48.90556,-27.09199]]},"properties":{"nome":"AV. BEIRA RIO","cor":"#673AB7"}},
{"type":"Feature","geometry":{"type":"LineString","coordinates":[[-48.91553,-27.10364],[-48.9152,-27.10494],[-48.91472,-27.10818],[-48.91374,-27.10956],[-48.91129,-27.11165],[-48.90994,-27.11425],[-48.90945,-27.11603],[-48.90959,-27.11774],[-48.90782,-27.12019],[-48.90516,-27.12158],[-48.90383,-27.12199],[-48.90244,-27.12312],[-48.90193,-27.12471],[-48.90144,-27.12537],[-48.89936,-27.12641],[-48.89835,-27.12781]]},"properties":{"nome":"AVENIDA PRIMEIRO DE MAIO","cor":"#0F9D58"}},
{"type":"Feature","geometry":{"type":"LineString","coordinates":[[-48.89188,-27.16333],[-48.89077,-27.16405],[-48.89022,-27.1636],[-48.8893,-27.16391],[-48.88793,-27.16539],[-48.8865,-27.1648],[-48.88511,-27.16551],[-48.88509,-27.16584],[-48.88297,-27.1651],[-48.88139,-27.16522],[-48.88052,-27.16557],[-48.87864,-27.16574],[-48.8769,-27.16738],[-48.87691,-27.16861],[-48.8775,-27.16904],[-48.87763,-27.17091],[-48.87844,-27.17233],[-48.8784,-27.17359],[-48.87892,-27.1738],[-48.87868,-27.1747],[-48.87709,-27.17407],[-48.87607,-27.1744],[-48.87512,-27.17334],[-48.87542,-27.17287],[-48.87483,-27.17222],[-48.87394,-27.17231],[-48.8738,-27.17341],[-48.87294,-27.17369],[-48.87249,-27.17483]]},"properties":{"nome":"ESTRADA GERAL BRUSQUE CANELINHA","cor":"#0F9D58"}},
{"type":"Feature","geometry":{"type":"LineString","coordinates":[[-48.90767,-27.09065],[-48.9074,-27.09001]]},"properties":{"nome":"PONTE Mario Olinger","cor":"#0F9D58"}},
{"type":"Feature","geometry":{"type":"LineString","coordinates":[[-48.90878,-27.08246],[-48.90786,-27.08251]]},"properties":{"nome":"PONTE do Trabalhador","cor":"#0F9D58"}},
{"type":"Feature","geometry":{"type":"LineString","coordinates":[[-48.92721,-27.0987],[-48.92771,-27.09918]]},"properties":{"nome":"PONTE Antônio Nicolau Maluche","cor":"#0F9D58"}},
{"type":"Feature","geometry":{"type":"LineString","coordinates":[[-48.91712,-27.1003],[-48.91711,-27.10089]]},"properties":{"nome":"PONTE Irineu Bornhausen","cor":"#0F9D58"}},
{"type":"Feature","geometry":{"type":"LineString","coordinates":[[-48.9134,-27.09998],[-48.91333,-27.10055]]},"properties":{"nome":"PONTE Arthur Schlosser","cor":"#0F9D58"}},
{"type":"Feature","geometry":{"type":"LineString","coordinates":[[-48.90547,-27.16124],[-48.90551,-27.16183],[-48.90474,-27.16318],[-48.90379,-27.16412],[-48.90331,-27.16521],[-48.90254,-27.16583],[-48.9012,-27.16543],[-48.90116,-27.16368],[-48.90085,-27.16327],[-48.89903,-27.16289],[-48.89837,-27.16358],[-48.89853,-27.1663],[-48.89733,-27.16831],[-48.89607,-27.16973],[-48.89524,-27.17346],[-48.89531,-27.17414],[-48.89664,-27.17578],[-48.89659,-27.17653],[-48.89576,-27.17755],[-48.89602,-27.1791],[-48.8944,-27.18106],[-48.89267,-27.18234]]},"properties":{"nome":"ROD GENTIL ARCHER SC 409","cor":"#0F9D58"}},
{"type":"Feature","geometry":{"type":"LineString","coordinates":[[-48.89677,-27.06973],[-48.89648,-27.06905],[-48.89554,-27.06532],[-48.8952,-27.06466],[-48.89154,-27.06242],[-48.89062,-27.06083],[-48.8915,-27.05583],[-48.89271,-27.05261],[-48.8927,-27.04907],[-48.893,-27.04726],[-48.89299,-27.04557],[-48.89217,-27.04421],[-48.88786,-27.04146],[-48.88678,-27.04056],[-48.88436,-27.0376],[-48.88411,-27.03684],[-48.88343,-27.03284],[-48.88215,-27.03001],[-48.88183,-27.02895],[-48.88207,-27.02808],[-48.88292,-27.0268],[-48.88326,-27.02555],[-48.88338,-27.02299]]},"properties":{"nome":"ROD IVO SILVEIRA","cor":"#0F9D58"}},
{"type":"Feature","geometry":{"type":"LineString","coordinates":[[-48.8834,-27.02292],[-48.88369,-27.01624],[-48.88315,-27.01504],[-48.88093,-27.01352],[-48.8804,-27.01216],[-48.88062,-27.00611],[-48.8802,-27.0031],[-48.8802,-27.00197],[-48.88155,-27.00015]]},"properties":{"nome":"ROD IVO SILVEIRA","cor":"#0F9D58"}},
{"type":"Feature","geometry":{"type":"LineString","coordinates":[[-48.90327,-27.07685],[-48.90696,-27.07775]]},"properties":{"nome":"ROD. IVO SILVEIRA","cor":"#0097A7"}},
{"type":"Feature","geometry":{"type":"MultiLineString","coordinates":[[[-48.86379,-27.03897],[-48.86924,-27.04298],[-48.87077,-27.04564],[-48.8708,-27.04724],[-48.87036,-27.04913],[-48.8708,-27.05065],[-48.8748,-27.05673],[-48.8771,-27.06135]],[[-48.86379,-27.03897],[-48.85922,-27.03562],[-48.85775,-27.03455]]]},"properties":{"nome":"RODOVIA ANTONIO HEIL","cor":"#0F9D58"}},
{"type":"Feature","geometry":{"type":"LineString","coordinates":[[-48.90317,-27.09415],[-48.90497,-27.09801],[-48.90569,-27.09864],[-48.90949,-27.10035],[-48.91146,-27.10162]]},"properties":{"nome":"RODOVIA ANTONIO HEIL","cor":"#0F9D58"}},
{"type":"Feature","geometry":{"type":"LineString","coordinates":[[-48.89531,-27.08174],[-48.89576,-27.08246],[-48.89644,-27.08487],[-48.89711,-27.08604],[-48.89829,-27.08689],[-48.89927,-27.08981],[-48.90142,-27.0911],[-48.90267,-27.09295],[-48.90317,-27.09415]]},"properties":{"nome":"RODOVIA ANTONIO HEILL","cor":"#0F9D58"}},
{"type":"Feature","geometry":{"type":"LineString","coordinates":[[-48.8771,-27.06135],[-48.87855,-27.06433],[-48.88122,-27.06969],[-48.88321,-27.0717],[-48.88575,-27.07356],[-48.88711,-27.07518],[-48.88918,-27.07824],[-48.89014,-27.07904],[-48.89439,-27.08099],[-48.89531,-27.08174]]},"properties":{"nome":"RODOVIA ANTONIO HEILL","cor":"#0F9D58"}},
{"type":"Feature","geometry":{"type":"LineString","coordinates":[[-48.89677,-27.06973],[-48.89791,-27.0714],[-48.90046,-27.07353],[-48.90255,-27.07625],[-48.90327,-27.07685]]},"properties":{"nome":"RODOVIA IVO SILVEIRA","cor":"#0097A7"}},
{"type":"Feature","geometry":{"type":"LineString","coordinates":[[-48.88436,-27.0376],[-48.88287,-27.03736],[-48.88168,-27.03807],[-48.88066,-27.03949],[-48.8785,-27.04063],[-48.87792,-27.04188],[-48.87733,-27.04231],[-48.87571,-27.04221],[-48.87414,-27.04113],[-48.87378,-27.03995],[-48.87405,-27.03902],[-48.87276,-27.0373],[-48.8722,-27.03604],[-48.87008,-27.0348],[-48.86806,-27.03424],[-48.86682,-27.03336],[-48.86452,-27.03265],[-48.86257,-27.03253],[-48.8614,-27.03208],[-48.86071,-27.03133],[-48.85957,-27.03037],[-48.85821,-27.02953],[-48.85671,-27.02716],[-48.85621,-27.02605],[-48.85497,-27.02457]]},"properties":{"nome":"RUA ABRAÃO SOUZA E SILVA - ESTRADA DA FAZENDA","cor":"#FFEA00"}},
{"type":"Feature","geometry":{"type":"LineString","coordinates":[[-48.90784,-27.09243],[-48.90873,-27.09359],[-48.90989,-27.09352]]},"properties":{"nome":"RUA AFONSO PENA","cor":"#0097A7"}},
{"type":"Feature","geometry":{"type":"LineString","coordinates":[[-48.92233,-27.14476],[-48.92371,-27.14598],[-48.92432,-27.14716],[-48.92641,-27.1501],[-48.92858,-27.15145],[-48.92977,-27.15314],[-48.93044,-27.15479],[-48.93133,-27.15561]]},"properties":{"nome":"RUA ALBERTO KLABUNDE","cor":"#0F9D58"}},
{"type":"Feature","geometry":{"type":"LineString","coordinates":[[-48.92141,-27.14324],[-48.92233,-27.14476]]},"properties":{"nome":"RUA ALBERTO KLABUNDE","cor":"#0F9D58"}},
{"type":"Feature","geometry":{"type":"LineString","coordinates":[[-48.93577,-27.16119],[-48.93655,-27.16195],[-48.9376,-27.16366],[-48.93843,-27.16422],[-48.93889,-27.16544],[-48.93894,-27.1665],[-48.93992,-27.16899]]},"properties":{"nome":"RUA ALBERTO KLABUNDE","cor":"#0F9D58"}},
{"type":"Feature","geometry":{"type":"LineString","coordinates":[[-48.93133,-27.15561],[-48.93135,-27.15671]]},"properties":{"nome":"RUA ALBERTO KLABUNDE","cor":"#0F9D58"}},
{"type":"Feature","geometry":{"type":"LineString","coordinates":[[-48.93135,-27.15671],[-48.93232,-27.15766],[-48.9331,-27.15794],[-48.93466,-27.15968],[-48.93577,-27.16119]]},"properties":{"nome":"RUA ALBERTO KLABUNDE","cor":"#0F9D58"}},
{"type":"Feature","geometry":{"type":"MultiLineString","coordinates":[[[-48.87855,-27.06433],[-48.87666,-27.0647],[-48.87553,-27.06527],[-48.87462,-27.06723]],[[-48.87462,-27.06723],[-48.87444,-27.06785],[-48.87234,-27.06917],[-48.86969,-27.07001],[-48.86831,-27.06994],[-48.86506,-27.07024],[-48.86446,-27.07079],[-48.86406,-27.07289],[-48.86331,-27.07552],[-48.8639,-27.0774],[-48.86139,-27.07924],[-48.86077,-27.08042],[-48.85854,-27.08218],[-48.85711,-27.08407],[-48.85539,-27.08549],[-48.85495,-27.08708],[-48.85414,-27.08865],[-48.85432,-27.09115],[-48.85421,-27.09237],[-48.85474,-27.09403],[-48.85479,-27.0963],[-48.85362,-27.09816],[-48.85257,-27.10106],[-48.85094,-27.10166],[-48.84951,-27.10172],[-48.84881,-27.10205],[-48.849,-27.10263],[-48.85011,-27.10326],[-48.8509,-27.10455],[-48.85245,-27.10629],[-48.85278,-27.10791],[-48.85235,-27.10897]],[[-48.85235,-27.10897],[-48.85156,-27.10967],[-48.84933,-27.11013],[-48.84879,-27.11078],[-48.84873,-27.1124],[-48.84729,-27.11339],[-48.84626,-27.11276],[-48.8453,-27.11261],[-48.84407,-27.11339],[-48.84191,-27.11312],[-48.8404,-27.11406],[-48.83881,-27.11389],[-48.83536,-27.11524],[-48.83379,-27.11543],[-48.83102,-27.11474],[-48.82652,-27.11422],[-48.825,-27.11437],[-48.82376,-27.11517],[-48.82141,-27.11462],[-48.82036,-27.11484],[-48.81803,-27.11475],[-48.81687,-27.11323],[-48.81703,-27.11201],[-48.81615,-27.11139],[-48.81528,-27.11017],[-48.81389,-27.11022],[-48.81329,-27.10957],[-48.81085,-27.10893],[-48.80955,-27.10928],[-48.80879,-27.11033],[-48.80715,-27.11181],[-48.80565,-27.11153],[-48.80494,-27.11176],[-48.80327,-27.11066],[-48.80008,-27.10955],[-48.79979,-27.10858],[-48.79775,-27.10825],[-48.7965,-27.10925],[-48.79536,-27.10901],[-48.79482,-27.10945],[-48.79316,-27.10963]]]},"properties":{"nome":"RUA ALBERTO MULLER","cor":"#0F9D58"}},
{"type":"Feature","geometry":{"type":"LineString","coordinates":[[-48.91538,-27.0843],[-48.91274,-27.08257],[-48.91196,-27.08126]]},"properties":{"nome":"RUA ANITA GARIBALDI","cor":"#0097A7"}},
{"type":"Feature","geometry":{"type":"LineString","coordinates":[[-48.90176,-27.15629],[-48.90276,-27.15751],[-48.90461,-27.15867],[-48.90488,-27.16032],[-48.90547,-27.16124]]},"properties":{"nome":"RUA ARNOLDO RISTOW","cor":"#0F9D58"}},
{"type":"Feature","geometry":{"type":"LineString","coordinates":[[-48.90007,-27.14367],[-48.8996,-27.14547],[-48.89988,-27.14724],[-48.89922,-27.15077],[-48.90007,-27.15306],[-48.90137,-27.15419],[-48.90176,-27.15629]]},"properties":{"nome":"RUA AUGUSTO KLAPOTH","cor":"#0F9D58"}},
{"type":"Feature","geometry":{"type":"MultiLineString","coordinates":[[[-48.90176,-27.15629],[-48.90131,-27.15783],[-48.90013,-27.15886],[-48.89929,-27.15997],[-48.89702,-27.15919],[-48.89548,-27.16051],[-48.89466,-27.16023],[-48.89399,-27.15942],[-48.89326,-27.15987],[-48.89228,-27.1619],[-48.89188,-27.16333],[-48.89235,-27.16409],[-48.89226,-27.16523]],[[-48.89226,-27.16523],[-48.89239,-27.16651],[-48.89312,-27.1678],[-48.89446,-27.16922],[-48.89528,-27.17118],[-48.89489,-27.17223],[-48.89524,-27.17346]]]},"properties":{"nome":"RUA AUGUSTO KLAPOTH","cor":"#0F9D58"}},
{"type":"Feature","geometry":{"type":"LineString","coordinates":[[-48.936,-27.09996],[-48.93473,-27.09995],[-48.93417,-27.0995],[-48.93343,-27.09861]]},"properties":{"nome":"RUA AYRES L PENK","cor":"#FFEA00"}},
{"type":"Feature","geometry":{"type":"LineString","coordinates":[[-48.91994,-27.10748],[-48.91963,-27.109],[-48.91903,-27.10953],[-48.9188,-27.11046],[-48.9191,-27.11203],[-48.91844,-27.11315],[-48.91968,-27.11687],[-48.9196,-27.11819],[-48.92169,-27.1225],[-48.9224,-27.12503],[-48.92161,-27.12325],[-48.92185,-27.1232]]},"properties":{"nome":"RUA AZAMBUJA","cor":"#0097A7"}},
{"type":"Feature","geometry":{"type":"LineString","coordinates":[[-48.90767,-27.09065],[-48.90793,-27.09132],[-48.9081,-27.09168],[-48.90989,-27.09352],[-48.91095,-27.09435],[-48.91181,-27.09453],[-48.91255,-27.09464],[-48.91455,-27.09495]]},"properties":{"nome":"RUA BARÃO DO RIO BRANCO","cor":"#0097A7"}},
{"type":"Feature","geometry":{"type":"LineString","coordinates":[[-48.89299,-27.04557],[-48.89436,-27.04572],[-48.89633,-27.0464],[-48.89886,-27.04903],[-48.90054,-27.0495],[-48.90186,-27.05049],[-48.90457,-27.05068]]},"properties":{"nome":"RUA BERTOLDO TODT","cor":"#0F9D58"}},
{"type":"Feature","geometry":{"type":"LineString","coordinates":[[-48.91196,-27.08126],[-48.91115,-27.08022],[-48.91016,-27.07975],[-48.90821,-27.07929],[-48.90714,-27.07787]]},"properties":{"nome":"RUA BLUMENAU","cor":"#0097A7"}},
{"type":"Feature","geometry":{"type":"LineString","coordinates":[[-48.91712,-27.1003],[-48.91706,-27.09918]]},"properties":{"nome":"RUA CONSELHEIRO RUI BARBOSA","cor":"#0F9D58"}},
{"type":"Feature","geometry":{"type":"LineString","coordinates":[[-48.92234,-27.09154],[-48.92197,-27.09017],[-48.92094,-27.0881],[-48.92125,-27.08646],[-48.92063,-27.08427]]},"properties":{"nome":"RUA DANIEL IMHOF","cor":"#0F9D58"}},
{"type":"Feature","geometry":{"type":"LineString","coordinates":[[-48.92023,-27.0934],[-48.92051,-27.09252],[-48.92234,-27.09154]]},"properties":{"nome":"RUA DANIEL IMHOF","cor":"#0F9D58"}},
{"type":"Feature","geometry":{"type":"LineString","coordinates":[[-48.9594,-27.14955],[-48.95823,-27.1503],[-48.95791,-27.15204],[-48.95694,-27.15407],[-48.95599,-27.15459],[-48.9555,-27.15612],[-48.95461,-27.15732],[-48.95524,-27.15903]]},"properties":{"nome":"RUA DAVID HORT","cor":"#0F9D58"}},
{"type":"Feature","geometry":{"type":"LineString","coordinates":[[-48.95524,-27.15903],[-48.95685,-27.16081],[-48.95724,-27.1622],[-48.95738,-27.16393],[-48.96054,-27.16778],[-48.96272,-27.16967],[-48.96388,-27.17174],[-48.96516,-27.17305],[-48.96661,-27.17596],[-48.96647,-27.17763],[-48.9668,-27.17835],[-48.96793,-27.17938]]},"properties":{"nome":"RUA DAVID HORT","cor":"#0F9D58"}},
{"type":"Feature","geometry":{"type":"LineString","coordinates":[[-48.88527,-27.07212],[-48.88369,-27.0705],[-48.88265,-27.06719],[-48.88002,-27.0639],[-48.87894,-27.05947]]},"properties":{"nome":"RUA DORVAL LUZ","cor":"#FFEA00"}},
{"type":"Feature","geometry":{"type":"LineString","coordinates":[[-48.92182,-27.09744],[-48.92463,-27.09757]]},"properties":{"nome":"RUA DR. PENIDO","cor":"#0F9D58"}},
{"type":"Feature","geometry":{"type":"LineString","coordinates":[[-48.8952,-27.06466],[-48.89786,-27.06371],[-48.89997,-27.06199],[-48.90234,-27.06167],[-48.90452,-27.06181],[-48.90684,-27.06071],[-48.90684,-27.06035],[-48.90518,-27.05709],[-48.90549,-27.05574],[-48.90613,-27.05518],[-48.9047,-27.05177],[-48.90457,-27.05068]]},"properties":{"nome":"RUA EDGAR VON BUETTNER","cor":"#0F9D58"}},
{"type":"Feature","geometry":{"type":"LineString","coordinates":[[-48.91988,-27.09523],[-48.92023,-27.0934]]},"properties":{"nome":"RUA EDUARDO VON BUETNNER","cor":"#0F9D58"}},
{"type":"Feature","geometry":{"type":"LineString","coordinates":[[-48.94186,-27.102],[-48.9427,-27.10294],[-48.94476,-27.10322],[-48.94526,-27.1047],[-48.94436,-27.10543],[-48.94347,-27.10764],[-48.94422,-27.11],[-48.94504,-27.11133]]},"properties":{"nome":"RUA ERNESTO BIANCHINI","cor":"#0F9D58"}},
{"type":"Feature","geometry":{"type":"LineString","coordinates":[[-48.95154,-27.1315],[-48.9537,-27.1313],[-48.95642,-27.12914],[-48.95829,-27.12872],[-48.96014,-27.12801],[-48.96105,-27.12731],[-48.9619,-27.12739],[-48.96343,-27.1284],[-48.96485,-27.13008],[-48.96617,-27.13131],[-48.96695,-27.13343],[-48.96761,-27.13439],[-48.96812,-27.13607],[-48.9697,-27.13701],[-48.97067,-27.13881],[-48.97085,-27.14072],[-48.97118,-27.14165],[-48.9721,-27.14265],[-48.97315,-27.14286],[-48.97444,-27.1422],[-48.9764,-27.14218]]},"properties":{"nome":"RUA ERNESTO BIANCHINI","cor":"#F9A825"}},
{"type":"Feature","geometry":{"type":"LineString","coordinates":[[-48.91407,-27.09043],[-48.91413,-27.0893],[-48.91491,-27.08757],[-48.91478,-27.08567],[-48.91538,-27.0843]]},"properties":{"nome":"RUA FELIPE SCHIMIDT","cor":"#0F9D58"}},
{"type":"Feature","geometry":{"type":"MultiLineString","coordinates":[[[-48.91437,-27.09334],[-48.91479,-27.09217],[-48.91407,-27.09043]],[[-48.91437,-27.09334],[-48.91455,-27.09495]]]},"properties":{"nome":"RUA FELIPE SCHIMIDT","cor":"#0F9D58"}},
{"type":"Feature","geometry":{"type":"LineString","coordinates":[[-48.93455,-27.10321],[-48.93537,-27.1063],[-48.93545,-27.1071],[-48.93476,-27.10785]]},"properties":{"nome":"RUA FRANCISCO SASSI","cor":"#FFEA00"}},
{"type":"Feature","geometry":{"type":"LineString","coordinates":[[-48.94214,-27.09886],[-48.94235,-27.09884],[-48.94254,-27.09886],[-48.94424,-27.09958],[-48.94641,-27.09991],[-48.94706,-27.09967],[-48.94769,-27.09757],[-48.95018,-27.09698]]},"properties":{"nome":"RUA FREDERICO PETRUSCKY","cor":"#FFEA00"}},
{"type":"Feature","geometry":{"type":"LineString","coordinates":[[-48.94476,-27.10322],[-48.94799,-27.10231],[-48.94897,-27.10172],[-48.94897,-27.10036],[-48.94936,-27.09949],[-48.95085,-27.09828]]},"properties":{"nome":"RUA GABRIEL SIEGEL","cor":"#FFEA00"}},
{"type":"Feature","geometry":{"type":"LineString","coordinates":[[-48.92721,-27.0987],[-48.93019,-27.0965],[-48.9308,-27.09624],[-48.93237,-27.09627],[-48.93439,-27.09692],[-48.9386,-27.09818],[-48.94015,-27.09892],[-48.94214,-27.09886]]},"properties":{"nome":"RUA GENERAL OSÓRIO","cor":"#F9A825"}},
{"type":"Feature","geometry":{"type":"LineString","coordinates":[[-48.91998,-27.07271],[-48.91791,-27.07143],[-48.91727,-27.07027],[-48.91673,-27.06796],[-48.91503,-27.06763],[-48.91349,-27.0666]]},"properties":{"nome":"RUA GERMANO FISCHER","cor":"#0F9D58"}},
{"type":"Feature","geometry":{"type":"LineString","coordinates":[[-48.94125,-27.12181],[-48.9377,-27.12185]]},"properties":{"nome":"RUA GUILHERME A F HOEFFELLMANN","cor":"#0F9D58"}},
{"type":"Feature","geometry":{"type":"LineString","coordinates":[[-48.93439,-27.09692],[-48.93417,-27.0995]]},"properties":{"nome":"RUA HENRIQUE DEISCHMANN","cor":"#F9A825"}},
{"type":"Feature","geometry":{"type":"LineString","coordinates":[[-48.90258,-27.0914],[-48.9074,-27.09001]]},"properties":{"nome":"RUA HENRIQUE ROSIN","cor":"#0097A7"}},
{"type":"Feature","geometry":{"type":"LineString","coordinates":[[-48.91712,-27.10022],[-48.91732,-27.10029],[-48.91779,-27.10054],[-48.91831,-27.10063],[-48.92225,-27.1001],[-48.92628,-27.09949],[-48.92721,-27.0987]]},"properties":{"nome":"RUA HERCÍLIO LUZ","cor":"#0097A7"}},
{"type":"Feature","geometry":{"type":"LineString","coordinates":[[-48.93601,-27.10198],[-48.936,-27.09996]]},"properties":{"nome":"RUA HILÁRIO MATIOLLI","cor":"#FFEA00"}},
{"type":"Feature","geometry":{"type":"MultiLineString","coordinates":[[[-48.87894,-27.05947],[-48.87805,-27.05607],[-48.87644,-27.04911],[-48.87471,-27.0475],[-48.86967,-27.04231],[-48.86837,-27.0399],[-48.86759,-27.03778],[-48.86435,-27.037]],[[-48.86436,-27.03701],[-48.86406,-27.03693],[-48.861,-27.03612],[-48.85922,-27.03562]]]},"properties":{"nome":"RUA ITAJAÍ","cor":"#FFEA00"}},
{"type":"Feature","geometry":{"type":"LineString","coordinates":[[-48.95783,-27.1918],[-48.955,-27.19236],[-48.95374,-27.19419],[-48.95296,-27.19427],[-48.95301,-27.19333],[-48.95184,-27.19358],[-48.95174,-27.19509],[-48.95133,-27.19408],[-48.94981,-27.19374],[-48.94683,-27.19494],[-48.94626,-27.19617],[-48.94633,-27.19714],[-48.94549,-27.19767],[-48.94508,-27.20019],[-48.94564,-27.20116],[-48.94517,-27.20225],[-48.94395,-27.20329],[-48.9438,-27.20396]]},"properties":{"nome":"RUA JOSÉ DADA","cor":"#0F9D58"}},
{"type":"Feature","geometry":{"type":"LineString","coordinates":[[-48.95524,-27.15903],[-48.95323,-27.1616],[-48.9522,-27.16268],[-48.95064,-27.16246],[-48.94944,-27.16275],[-48.94752,-27.16372]]},"properties":{"nome":"RUA JOSÉ DUBIELA","cor":"#0F9D58"}},
{"type":"Feature","geometry":{"type":"LineString","coordinates":[[-48.91388,-27.06622],[-48.91287,-27.06471],[-48.91259,-27.06374],[-48.91184,-27.06317]]},"properties":{"nome":"RUA JOSÉ REIS E SILVA","cor":"#0F9D58"}},
{"type":"Feature","geometry":{"type":"LineString","coordinates":[[-48.91184,-27.06317],[-48.91083,-27.06296],[-48.90821,-27.06181],[-48.90684,-27.06071]]},"properties":{"nome":"RUA JOSÉ REIS E SILVA","cor":"#0F9D58"}},
{"type":"Feature","geometry":{"type":"LineString","coordinates":[[-48.92526,-27.1051],[-48.9229,-27.10686]]},"properties":{"nome":"RUA JOÃO ARCHER","cor":"#0097A7"}},
{"type":"Feature","geometry":{"type":"LineString","coordinates":[[-48.90989,-27.09352],[-48.9125,-27.09341],[-48.91437,-27.09334],[-48.92023,-27.0934]]},"properties":{"nome":"RUA JOÃO BAUER","cor":"#0F9D58"}},
{"type":"Feature","geometry":{"type":"LineString","coordinates":[[-48.90878,-27.08246],[-48.91198,-27.08231]]},"properties":{"nome":"RUA JOÃO BECKER","cor":"#0097A7"}},
{"type":"Feature","geometry":{"type":"LineString","coordinates":[[-48.95154,-27.1315],[-48.95177,-27.13766]]},"properties":{"nome":"RUA JOÃO BIANCHINI","cor":"#F9A825"}},
{"type":"Feature","geometry":{"type":"LineString","coordinates":[[-48.96793,-27.17938],[-48.96709,-27.18142],[-48.9678,-27.18232],[-48.96563,-27.18431],[-48.96567,-27.18489],[-48.9644,-27.18626],[-48.9639,-27.1881],[-48.96314,-27.18857],[-48.96162,-27.19014],[-48.96063,-27.19048],[-48.95931,-27.19143],[-48.95783,-27.1918]]},"properties":{"nome":"RUA JOÃO VICTORINO MAFRA","cor":"#0F9D58"}},
{"type":"Feature","geometry":{"type":"MultiLineString","coordinates":[[[-48.9586,-27.14392],[-48.95925,-27.1459],[-48.96035,-27.14826],[-48.96037,-27.14887]],[[-48.96037,-27.14887],[-48.9594,-27.14955]]]},"properties":{"nome":"RUA LUDOVICO MERICO","cor":"#FFEA00"}},
{"type":"Feature","geometry":{"type":"LineString","coordinates":[[-48.88527,-27.07212],[-48.88597,-27.07159],[-48.88867,-27.07104],[-48.88935,-27.07039],[-48.88996,-27.0698],[-48.89053,-27.06969],[-48.8911,-27.06973],[-48.89621,-27.06982],[-48.89677,-27.06973]]},"properties":{"nome":"RUA LUIZ GONZAGA VERNER","cor":"#FFEA00"}},
{"type":"Feature","geometry":{"type":"LineString","coordinates":[[-48.96117,-27.14396],[-48.96127,-27.147],[-48.96222,-27.14879],[-48.96177,-27.15057],[-48.96088,-27.1515],[-48.95883,-27.15475],[-48.95621,-27.15694],[-48.95524,-27.15903]]},"properties":{"nome":"RUA LUIZ MORELLI","cor":"#0097A7"}},
{"type":"Feature","geometry":{"type":"LineString","coordinates":[[-48.92225,-27.1001],[-48.92182,-27.09744],[-48.92181,-27.09723]]},"properties":{"nome":"RUA MANOEL TAVARES","cor":"#0097A7"}},
{"type":"Feature","geometry":{"type":"LineString","coordinates":[[-48.90267,-27.09295],[-48.90258,-27.0914],[-48.90237,-27.09051],[-48.90397,-27.08859],[-48.90506,-27.08787]]},"properties":{"nome":"RUA MARCÍLIO DIAS","cor":"#0097A7"}},
{"type":"Feature","geometry":{"type":"LineString","coordinates":[[-48.93839,-27.10166],[-48.93975,-27.10153],[-48.94063,-27.10193],[-48.94186,-27.102]]},"properties":{"nome":"RUA MARGARIDA FISCHER","cor":"#0F9D58"}},
{"type":"Feature","geometry":{"type":"LineString","coordinates":[[-48.92168,-27.09694],[-48.9208,-27.09568],[-48.91988,-27.09523]]},"properties":{"nome":"RUA MARTIN LUTHER","cor":"#0F9D58"}},
{"type":"Feature","geometry":{"type":"LineString","coordinates":[[-48.93158,-27.11058],[-48.93268,-27.11124],[-48.93409,-27.11395],[-48.93483,-27.11711]]},"properties":{"nome":"RUA MAXIMILIANO FURBRINGER","cor":"#0F9D58"}},
{"type":"Feature","geometry":{"type":"LineString","coordinates":[[-48.91699,-27.10131],[-48.91653,-27.10075]]},"properties":{"nome":"RUA NILO MAESTRI","cor":"#673AB7"}},
{"type":"Feature","geometry":{"type":"LineString","coordinates":[[-48.9384,-27.10043],[-48.93839,-27.10166],[-48.93839,-27.10198],[-48.93823,-27.10408],[-48.93885,-27.1054]]},"properties":{"nome":"RUA ORIDES SCHWARTZ","cor":"#0097A7"}},
{"type":"Feature","geometry":{"type":"LineString","coordinates":[[-48.96793,-27.17938],[-48.96986,-27.18016],[-48.97321,-27.17995],[-48.97363,-27.18022],[-48.97458,-27.18202],[-48.97603,-27.18343],[-48.97675,-27.18486],[-48.97866,-27.18607],[-48.9789,-27.18866],[-48.97991,-27.1907],[-48.97976,-27.19292],[-48.98085,-27.19376],[-48.98182,-27.19318],[-48.98254,-27.1936],[-48.98287,-27.19511],[-48.98353,-27.19583],[-48.98411,-27.19711],[-48.98486,-27.19756],[-48.98461,-27.19828],[-48.98533,-27.20007],[-48.98602,-27.20084],[-48.98759,-27.20144],[-48.98915,-27.20177],[-48.98986,-27.20282],[-48.98987,-27.20453],[-48.99142,-27.20548],[-48.99252,-27.20706],[-48.99246,-27.20853],[-48.99272,-27.20958],[-48.99384,-27.21062],[-48.99629,-27.21166],[-48.99722,-27.21223],[-48.99689,-27.21379],[-48.99734,-27.21668],[-48.99783,-27.21887],[-48.99866,-27.21965],[-48.9987,-27.22029],[-48.9977,-27.22101],[-48.99749,-27.22338],[-48.99785,-27.22344],[-48.99878,-27.22584],[-48.99887,-27.22667],[-48.99808,-27.22775],[-48.99814,-27.22867],[-48.9989,-27.22991],[-48.9988,-27.23075],[-48.99933,-27.23174],[-48.99888,-27.2325],[-48.9982,-27.23462],[-48.99876,-27.23564],[-48.99866,-27.23748],[-48.99934,-27.2386],[-49.00054,-27.23939],[-49.0006,-27.24082],[-48.99998,-27.24162],[-48.99991,-27.24307],[-49.00058,-27.24457],[-49.00026,-27.24581],[-48.99957,-27.24649],[-48.99853,-27.24675],[-48.99783,-27.24624]]},"properties":{"nome":"RUA OTAVIANO ROSA","cor":"#0F9D58"}},
{"type":"Feature","geometry":{"type":"LineString","coordinates":[[-48.91338,-27.09683],[-48.91203,-27.09488],[-48.91181,-27.09453]]},"properties":{"nome":"RUA PAES LEME","cor":"#0097A7"}},
{"type":"Feature","geometry":{"type":"LineString","coordinates":[[-48.9224,-27.12503],[-48.92246,-27.12653],[-48.92185,-27.12827],[-48.91955,-27.13017],[-48.91777,-27.1312],[-48.91684,-27.1313],[-48.91565,-27.1322],[-48.91511,-27.1337],[-48.91408,-27.1351],[-48.91372,-27.13605],[-48.91272,-27.13708],[-48.91296,-27.13812],[-48.91397,-27.13834],[-48.91556,-27.13941],[-48.91703,-27.13977],[-48.91833,-27.1412]]},"properties":{"nome":"RUA PE ANTONIO EISING","cor":"#0F9D58"}},
{"type":"Feature","geometry":{"type":"LineString","coordinates":[[-48.91833,-27.1412],[-48.91925,-27.14199],[-48.92141,-27.14324]]},"properties":{"nome":"RUA PE ANTONIO EISING","cor":"#0F9D58"}},
{"type":"Feature","geometry":{"type":"LineString","coordinates":[[-48.9134,-27.09998],[-48.91347,-27.09962],[-48.91338,-27.09683]]},"properties":{"nome":"RUA PREFEITO GERMANO SCHAEFER","cor":"#FFEA00"}},
{"type":"Feature","geometry":{"type":"LineString","coordinates":[[-48.91333,-27.10055],[-48.91319,-27.10145],[-48.91242,-27.10226]]},"properties":{"nome":"RUA PREFEITO GERMANO SCHAEFFER","cor":"#0F9D58"}},
{"type":"Feature","geometry":{"type":"LineString","coordinates":[[-48.90873,-27.09359],[-48.9087,-27.09364],[-48.90872,-27.09433],[-48.91141,-27.09523],[-48.91203,-27.09488]]},"properties":{"nome":"RUA RIACHUELO","cor":"#0097A7"}},
{"type":"Feature","geometry":{"type":"LineString","coordinates":[[-48.89605,-27.07955],[-48.89499,-27.0792],[-48.89246,-27.07768],[-48.89163,-27.0769],[-48.89049,-27.07642],[-48.8885,-27.07511],[-48.88527,-27.07212]]},"properties":{"nome":"RUA SANTOS DUMONT","cor":"#FFEA00"}},
{"type":"Feature","geometry":{"type":"LineString","coordinates":[[-48.9074,-27.09001],[-48.90661,-27.08904],[-48.90506,-27.08787],[-48.90508,-27.08618],[-48.90403,-27.08479],[-48.90172,-27.08312],[-48.90049,-27.08259],[-48.89793,-27.08029],[-48.89605,-27.07955]]},"properties":{"nome":"RUA SETE DE SETEMBRO","cor":"#0097A7"}},
{"type":"Feature","geometry":{"type":"LineString","coordinates":[[-48.92063,-27.08427],[-48.92,-27.08427],[-48.91892,-27.08335],[-48.91796,-27.08126]]},"properties":{"nome":"RUA SÃO LEOPOLDO","cor":"#0F9D58"}},
{"type":"Feature","geometry":{"type":"LineString","coordinates":[[-48.92063,-27.08427],[-48.92302,-27.08315],[-48.92412,-27.08305],[-48.92542,-27.08237],[-48.92699,-27.08235],[-48.93051,-27.08147],[-48.93181,-27.08083],[-48.93253,-27.07883],[-48.9331,-27.07791],[-48.9342,-27.07689],[-48.93442,-27.07517]]},"properties":{"nome":"RUA SÃO LEOPOLDO","cor":"#0F9D58"}},
{"type":"Feature","geometry":{"type":"LineString","coordinates":[[-48.91538,-27.0843],[-48.91619,-27.08269],[-48.91796,-27.08126],[-48.91814,-27.08049],[-48.91768,-27.07864]]},"properties":{"nome":"RUA SÃO PEDRO","cor":"#0097A7"}},
{"type":"Feature","geometry":{"type":"LineString","coordinates":[[-48.91741,-27.07666],[-48.92048,-27.07247],[-48.92159,-27.07141],[-48.92309,-27.07118],[-48.9258,-27.07033],[-48.92641,-27.07042],[-48.92873,-27.07162],[-48.9305,-27.07199],[-48.93281,-27.07383],[-48.93365,-27.07484],[-48.93442,-27.07517],[-48.93519,-27.0747],[-48.93594,-27.07327],[-48.93688,-27.07022],[-48.93773,-27.07021],[-48.93984,-27.07099],[-48.94166,-27.0711],[-48.94394,-27.07188],[-48.94691,-27.07164],[-48.95065,-27.07205]]},"properties":{"nome":"RUA SÃO PEDRO","cor":"#0F9D58"}},
{"type":"Feature","geometry":{"type":"LineString","coordinates":[[-48.93839,-27.10198],[-48.93601,-27.10198]]},"properties":{"nome":"RUA THEODORO REICHERT","cor":"#FFEA00"}},
{"type":"Feature","geometry":{"type":"LineString","coordinates":[[-48.91994,-27.10748],[-48.91724,-27.10602]]},"properties":{"nome":"RUA TIRADENTES","cor":"#0F9D58"}},
{"type":"Feature","geometry":{"type":"LineString","coordinates":[[-48.9152,-27.10494],[-48.91724,-27.10602]]},"properties":{"nome":"RUA TIRADENTES","cor":"#0F9D58"}},
{"type":"Feature","geometry":{"type":"MultiLineString","coordinates":[[[-48.92526,-27.1051],[-48.92519,-27.10757]],[[-48.92519,-27.10757],[-48.92518,-27.10764]]]},"properties":{"nome":"RUA VER OSCAR KRIEGER","cor":"#0097A7"}},
{"type":"Feature","geometry":{"type":"LineString","coordinates":[[-48.90049,-27.08259],[-48.90075,-27.08249],[-48.90709,-27.08251],[-48.90731,-27.08239]]},"properties":{"nome":"RUA VICTOR MEIRELLES","cor":"#FFEA00"}},
{"type":"Feature","geometry":{"type":"LineString","coordinates":[[-48.88618,-27.06467],[-48.88396,-27.06234],[-48.88327,-27.06],[-48.88301,-27.05793],[-48.88262,-27.05721]]},"properties":{"nome":"AV BEPE ROSA","cor":"#E65100"}},
{"type":"Feature","geometry":{"type":"LineString","coordinates":[[-48.88262,-27.05721],[-48.88197,-27.05547],[-48.88056,-27.05322],[-48.88128,-27.05035],[-48.88318,-27.04819],[-48.88295,-27.0466],[-48.88224,-27.04556],[-48.87988,-27.04551],[-48.87707,-27.04429],[-48.87503,-27.04473],[-48.87345,-27.04461]]},"properties":{"nome":"AV BEPE ROSA","cor":"#673AB7"}},
{"type":"Feature","geometry":{"type":"LineString","coordinates":[[-48.99336,-27.14776],[-48.99317,-27.14595]]},"properties":{"nome":"RUA ESTEFANO VOSS","cor":"#0F9D58"}},
{"type":"Feature","geometry":{"type":"LineString","coordinates":[[-48.99317,-27.14595],[-48.9929,-27.14526]]},"properties":{"nome":"PONTE CARLOS DECKER","cor":"#0F9D58"}},
{"type":"Feature","geometry":{"type":"LineString","coordinates":[[-48.91768,-27.07864],[-48.91741,-27.07666]]},"properties":{"nome":"RUA SÃO PEDRO","cor":"#FFEA00"}},
{"type":"Feature","geometry":{"type":"LineString","coordinates":[[-48.86103,-27.03167],[-48.86148,-27.03347],[-48.8616,-27.03493],[-48.86215,-27.03588],[-48.86228,-27.0362],[-48.86229,-27.03647]]},"properties":{"nome":"RUA Olímpio Gadotti","cor":"#FFEA00"}},
{"type":"Feature","geometry":{"type":"LineString","coordinates":[[-48.91282,-27.10037],[-48.91327,-27.10064],[-48.91347,-27.10072],[-48.91378,-27.10084],[-48.91404,-27.10093],[-48.91626,-27.10071]]},"properties":{"nome":"AV BEPE ROSA - BERIA RIO","cor":"#E65100"}},
{"type":"Feature","geometry":{"type":"LineString","coordinates":[[-48.9178,-27.10136],[-48.91742,-27.1011],[-48.91723,-27.10101],[-48.91702,-27.10092],[-48.91673,-27.10079],[-48.91653,-27.10075],[-48.91626,-27.10071]]},"properties":{"nome":"AV BEPE ROSA - BERIA RIO","cor":"#673AB7"}},
{"type":"Feature","geometry":{"type":"LineString","coordinates":[[-48.93013,-27.09837],[-48.92909,-27.09822],[-48.92847,-27.0986],[-48.92778,-27.09915],[-48.92759,-27.09934],[-48.92545,-27.10231]]},"properties":{"nome":"AV BEPE ROSA - BERIA RIO","cor":"#E65100"}},
{"type":"Feature","geometry":{"type":"LineString","coordinates":[[-48.93013,-27.09837],[-48.93248,-27.09972],[-48.93441,-27.10054],[-48.93491,-27.10152],[-48.93455,-27.10321]]},"properties":{"nome":"AV BEPE ROSA - BERIA RIO","cor":"#673AB7"}},
{"type":"Feature","geometry":{"type":"LineString","coordinates":[[-48.93455,-27.10321],[-48.93369,-27.10152],[-48.93037,-27.09983]]},"properties":{"nome":"Rua Francisco Sassi","cor":"#E65100"}},
{"type":"Feature","geometry":{"type":"LineString","coordinates":[[-48.93013,-27.09837],[-48.93037,-27.09983],[-48.93032,-27.10014]]},"properties":{"nome":"Rua Pedro Guilherme Klann Krieger","cor":"#F9A825"}},
{"type":"Feature","geometry":{"type":"LineString","coordinates":[[-48.92614,-27.10782],[-48.92518,-27.10764],[-48.9229,-27.10686],[-48.92174,-27.10638],[-48.92183,-27.10642]]},"properties":{"nome":"AV GERMANO FURBRINGER","cor":"#0097A7"}},
{"type":"Feature","geometry":{"type":"LineString","coordinates":[[-48.93483,-27.11711],[-48.9359,-27.12189]]},"properties":{"nome":"AV Maximiliano Furbringer","cor":"#0097A7"}},
{"type":"Feature","geometry":{"type":"LineString","coordinates":[[-48.9359,-27.12189],[-48.93613,-27.12314],[-48.93739,-27.12693]]},"properties":{"nome":"Av Maximiliano Furbringer","cor":"#FFEA00"}},
{"type":"Feature","geometry":{"type":"LineString","coordinates":[[-48.9377,-27.12185],[-48.9367,-27.12186]]},"properties":{"nome":"Ponte José Germano Schaeffer - Pilolo","cor":"#0F9D58"}},
{"type":"Feature","geometry":{"type":"LineString","coordinates":[[-48.9367,-27.12186],[-48.9359,-27.12189]]},"properties":{"nome":"RUA GUILHERME A F HOEFFELLMANN","cor":"#FFEA00"}},
{"type":"Feature","geometry":{"type":"LineString","coordinates":[[-48.95177,-27.13766],[-48.9515,-27.13825]]},"properties":{"nome":"Ponte Alois Petermmann","cor":"#0F9D58"}},
{"type":"Feature","geometry":{"type":"LineString","coordinates":[[-48.9515,-27.13825],[-48.95137,-27.13856]]},"properties":{"nome":"Rua Nilo João Bianchini","cor":"#0F9D58"}},
{"type":"Feature","geometry":{"type":"LineString","coordinates":[[-48.94222,-27.09885],[-48.94216,-27.09914],[-48.94192,-27.10004],[-48.94186,-27.102]]},"properties":{"nome":"RUA ERNESTO BIANCHINI","cor":"#F9A825"}},
{"type":"Feature","geometry":{"type":"LineString","coordinates":[[-48.93343,-27.09861],[-48.93263,-27.09816]]},"properties":{"nome":"Rua Ayres Lourenço Penk","cor":"#F9A825"}},
{"type":"Feature","geometry":{"type":"LineString","coordinates":[[-48.93455,-27.10321],[-48.93617,-27.10551],[-48.93868,-27.10712],[-48.94154,-27.10857],[-48.94158,-27.10877]]},"properties":{"nome":"Linha 1670","cor":"#E65100"}},
{"type":"Feature","geometry":{"type":"LineString","coordinates":[[-48.94158,-27.10877],[-48.94222,-27.10808]]},"properties":{"nome":"Linha 1671","cor":"#0F9D58"}},
{"type":"Feature","geometry":{"type":"LineString","coordinates":[[-48.94222,-27.10808],[-48.94316,-27.10908],[-48.94453,-27.11133],[-48.94459,-27.11342],[-48.94506,-27.11361]]},"properties":{"nome":"Linha 1672","cor":"#E65100"}},
{"type":"Feature","geometry":{"type":"LineString","coordinates":[[-48.88826,-27.06815],[-48.88857,-27.06889],[-48.88923,-27.06959],[-48.88993,-27.07018],[-48.89081,-27.07087],[-48.8918,-27.07146],[-48.8946,-27.07363],[-48.89911,-27.07744],[-48.90006,-27.07791],[-48.90727,-27.07985],[-48.90862,-27.08135],[-48.90868,-27.08174],[-48.90884,-27.0833],[-48.90909,-27.08455],[-48.91072,-27.08733],[-48.91072,-27.0884],[-48.90995,-27.08967],[-48.90858,-27.0904],[-48.90787,-27.0906],[-48.90748,-27.09071],[-48.90712,-27.09081],[-48.90667,-27.09094],[-48.90632,-27.09128],[-48.90635,-27.09211]]},"properties":{"nome":"Av Governador Luiz Henrique da Silveira","cor":"#673AB7"}},
{"type":"Feature","geometry":{"type":"LineString","coordinates":[[-48.99719,-27.14745],[-48.99503,-27.14725],[-48.99434,-27.14753],[-48.99336,-27.14776],[-48.99067,-27.14851],[-48.98998,-27.14865],[-48.98841,-27.14773],[-48.98684,-27.1465],[-48.98704,-27.14509],[-48.98685,-27.14352],[-48.98569,-27.1427],[-48.98421,-27.14208],[-48.98349,-27.14214],[-48.98298,-27.14385],[-48.98143,-27.14476],[-48.98057,-27.14602],[-48.97941,-27.1464],[-48.97808,-27.14631],[-48.97631,-27.14665],[-48.97531,-27.14608],[-48.97171,-27.14615]]},"properties":{"nome":"Rua DJ - 042","cor":"#0F9D58"}},
{"type":"Feature","geometry":{"type":"LineString","coordinates":[[-48.99719,-27.14745],[-48.99891,-27.14794],[-49.00142,-27.14705],[-49.00203,-27.14572],[-49.00397,-27.14436],[-49.00521,-27.1443],[-49.00621,-27.14542],[-49.00708,-27.14459],[-49.01028,-27.14353],[-49.01396,-27.14453],[-49.01472,-27.14499],[-49.01577,-27.14639],[-49.01663,-27.14699],[-49.01564,-27.1487],[-49.01445,-27.1492],[-49.01348,-27.15015],[-49.01347,-27.15098],[-49.0145,-27.15185],[-49.01467,-27.15336],[-49.01294,-27.15398],[-49.01199,-27.15491]]},"properties":{"nome":"Rua DJ - 042","cor":"#F9A825"}},
{"type":"Feature","geometry":{"type":"LineString","coordinates":[[-48.99062,-27.14852],[-48.9917,-27.15102],[-48.99325,-27.15143],[-48.9935,-27.15366],[-48.99265,-27.15511]]},"properties":{"nome":"Rua DJ - 042","cor":"#0F9D58"}},
{"type":"Feature","geometry":{"type":"LineString","coordinates":[[-48.98677,-27.15625],[-48.98452,-27.1552],[-48.98291,-27.1548],[-48.98153,-27.15415],[-48.98117,-27.15327],[-48.97937,-27.15024],[-48.97692,-27.14735],[-48.9737,-27.14674],[-48.97114,-27.14598]]},"properties":{"nome":"Rodovia Pedro Merísio - SC 486","cor":"#0F9D58"}},
{"type":"Feature","geometry":{"type":"LineString","coordinates":[[-48.97114,-27.14598],[-48.96851,-27.14523]]},"properties":{"nome":"Rodovia Pedro Merísio - SC 486","cor":"#0097A7"}},
{"type":"Feature","geometry":{"type":"LineString","coordinates":[[-48.96851,-27.14523],[-48.96541,-27.14444],[-48.96172,-27.14398]]},"properties":{"nome":"Rua Botuverá","cor":"#0F9D58"}},
{"type":"Feature","geometry":{"type":"LineString","coordinates":[[-48.96172,-27.14398],[-48.96117,-27.14396],[-48.9586,-27.14392]]},"properties":{"nome":"Rua Botuverá","cor":"#FFEA00"}},
{"type":"Feature","geometry":{"type":"LineString","coordinates":[[-48.9586,-27.14392],[-48.95725,-27.14266]]},"properties":{"nome":"Rua do Cedro","cor":"#0097A7"}},
{"type":"Feature","geometry":{"type":"LineString","coordinates":[[-48.95725,-27.14266],[-48.9538,-27.13952],[-48.95137,-27.13856],[-48.94935,-27.13776],[-48.94865,-27.13685],[-48.94822,-27.1348],[-48.94711,-27.13356],[-48.94616,-27.13293],[-48.94439,-27.13239],[-48.94153,-27.13111],[-48.94051,-27.12947],[-48.93739,-27.12693],[-48.93595,-27.12632]]},"properties":{"nome":"Rua do Cedro","cor":"#0F9D58"}},
{"type":"Feature","geometry":{"type":"LineString","coordinates":[[-48.91994,-27.10748],[-48.9196,-27.10544]]},"properties":{"nome":"Rua Azambuja","cor":"#FFEA00"}},
{"type":"Feature","geometry":{"type":"LineString","coordinates":[[-48.94752,-27.16372],[-48.94566,-27.16464],[-48.94282,-27.16685],[-48.9405,-27.16811],[-48.93992,-27.16899]]},"properties":{"nome":"RUA JOSÉ DUBIELA","cor":"#0F9D58"}},
{"type":"Feature","geometry":{"type":"LineString","coordinates":[[-48.90771,-27.09074],[-48.90741,-27.09081],[-48.9071,-27.09089],[-48.90683,-27.09097],[-48.90661,-27.09107],[-48.90635,-27.09211]]},"properties":{"nome":"Av Arno Carlos Gracher","cor":"#0097A7"}},
{"type":"Feature","geometry":{"type":"LineString","coordinates":[[-48.90635,-27.09211],[-48.9067,-27.09362],[-48.90684,-27.09395],[-48.90731,-27.0947],[-48.90842,-27.09597]]},"properties":{"nome":"Av Arno Carlos Gracher","cor":"#FFEA00"}},
{"type":"Feature","geometry":{"type":"LineString","coordinates":[[-48.90842,-27.09597],[-48.90929,-27.09686]]},"properties":{"nome":"Av Arno Carlos Gracher","cor":"#F9A825"}},
{"type":"Feature","geometry":{"type":"LineString","coordinates":[[-48.90929,-27.09686],[-48.91073,-27.09789]]},"properties":{"nome":"Av Arno Carlos Gracher","cor":"#E65100"}},
{"type":"Feature","geometry":{"type":"LineString","coordinates":[[-48.91073,-27.09789],[-48.91281,-27.09948]]},"properties":{"nome":"Av Arno Carlos Gracher","cor":"#0097A7"}},
{"type":"Feature","geometry":{"type":"LineString","coordinates":[[-48.91281,-27.09948],[-48.91336,-27.09993],[-48.91355,-27.10005],[-48.91407,-27.10029]]},"properties":{"nome":"Av Arno Carlos Gracher","cor":"#673AB7"}},
{"type":"Feature","geometry":{"type":"LineString","coordinates":[[-48.91712,-27.10022],[-48.91407,-27.10029]]},"properties":{"nome":"Av Arno Carlos Gracher","cor":"#0097A7"}},
{"type":"Feature","geometry":{"type":"LineString","coordinates":[[-48.94504,-27.11133],[-48.94547,-27.11223],[-48.94538,-27.11305],[-48.94449,-27.1152]]},"properties":{"nome":"RUA ERNESTO BIANCHINI","cor":"#E65100"}},
{"type":"Feature","geometry":{"type":"LineString","coordinates":[[-48.94449,-27.1152],[-48.94415,-27.11576],[-48.94264,-27.11629]]},"properties":{"nome":"RUA ERNESTO BIANCHINI","cor":"#0097A7"}},
{"type":"Feature","geometry":{"type":"LineString","coordinates":[[-48.94264,-27.11629],[-48.94083,-27.11707]]},"properties":{"nome":"RUA ERNESTO BIANCHINI","cor":"#F9A825"}},
{"type":"Feature","geometry":{"type":"LineString","coordinates":[[-48.94083,-27.11707],[-48.94023,-27.11864]]},"properties":{"nome":"RUA ERNESTO BIANCHINI","cor":"#FFEA00"}},
{"type":"Feature","geometry":{"type":"LineString","coordinates":[[-48.94023,-27.11864],[-48.9411,-27.12025],[-48.94125,-27.12181],[-48.94129,-27.12307]]},"properties":{"nome":"RUA ERNESTO BIANCHINI","cor":"#0F9D58"}},
{"type":"Feature","geometry":{"type":"LineString","coordinates":[[-48.94129,-27.12307],[-48.94137,-27.12697]]},"properties":{"nome":"RUA ERNESTO BIANCHINI","cor":"#FFEA00"}},
{"type":"Feature","geometry":{"type":"LineString","coordinates":[[-48.94137,-27.12697],[-48.94363,-27.12753]]},"properties":{"nome":"RUA ERNESTO BIANCHINI","cor":"#0F9D58"}},
{"type":"Feature","geometry":{"type":"LineString","coordinates":[[-48.94363,-27.12753],[-48.94469,-27.12791]]},"properties":{"nome":"RUA ERNESTO BIANCHINI","cor":"#F9A825"}},
{"type":"Feature","geometry":{"type":"LineString","coordinates":[[-48.94469,-27.12791],[-48.94565,-27.12871]]},"properties":{"nome":"RUA ERNESTO BIANCHINI","cor":"#0F9D58"}},
{"type":"Feature","geometry":{"type":"LineString","coordinates":[[-48.94565,-27.12871],[-48.94791,-27.13017],[-48.94926,-27.13134],[-48.95154,-27.1315]]},"properties":{"nome":"RUA ERNESTO BIANCHINI","cor":"#FFEA00"}},
{"type":"Feature","geometry":{"type":"LineString","coordinates":[[-48.89677,-27.06973],[-48.89621,-27.06982],[-48.8911,-27.06973],[-48.89053,-27.06969],[-48.88996,-27.0698],[-48.88977,-27.06998]]},"properties":{"nome":"RUA GERMANO FISCHER","cor":"#0F9D58"}},
{"type":"Feature","geometry":{"type":"LineString","coordinates":[[-48.88977,-27.06998],[-48.88958,-27.07017],[-48.88938,-27.07036],[-48.88931,-27.07043]]},"properties":{"nome":"Ponte Libério Benvenutti","cor":"#0F9D58"}}
]}