{"type": "FeatureCollection", "features": [{"type": "Feature", "geometry": {"type": "Point", "coordinates": [-49.328436, -27.33256]}, "properties": {"codigo": "83892990", "nome": "Salseiro", "rio": "Rio Itajaí-Mirim", "municipio": "Vidal Ramos", "digital": true, "tem_dado": false, "nivel_m": null, "coleta": null, "coleta_ts": null, "variacao_cm": null, "chuva_mm": null, "fonte": null, "st": "#8a97a8", "pulse": false}}, {"type": "Feature", "geometry": {"type": "Point", "coordinates": [-49.01765, -27.16384]}, "properties": {"codigo": "83892998", "nome": "Botuverá-Montante", "rio": "Rio Itajaí-Mirim", "municipio": "Botuverá", "digital": false, "tem_dado": false, "nivel_m": null, "coleta": null, "coleta_ts": null, "variacao_cm": null, "chuva_mm": null, "fonte": null, "st": "#8a97a8", "pulse": false}}, {"type": "Feature", "geometry": {"type": "Point", "coordinates": [-49.0653, -27.1908]}, "properties": {"codigo": "83893000", "nome": "Botuverá", "rio": "Rio Itajaí-Mirim", "municipio": "Botuverá", "digital": false, "tem_dado": false, "nivel_m": null, "coleta": null, "coleta_ts": null, "variacao_cm": null, "chuva_mm": null, "fonte": null, "st": "#8a97a8", "pulse": false}}, {"type": "Feature", "geometry": {"type": "Point", "coordinates": [-49.120649, -27.18626]}, "properties": {"codigo": "DCSC-00018", "nome": "Botuverá 1", "rio": "Rio Itajaí-Mirim", "municipio": "Botuverá", "digital": true, "tem_dado": false, "nivel_m": null, "coleta": null, "coleta_ts": null, "variacao_cm": null, "chuva_mm": null, "fonte": null, "st": "#8a97a8", "pulse": false}}, {"type": "Feature", "geometry": {"type": "Point", "coordinates": [-48.9774, -27.0868]}, "properties": {"codigo": "DCSC-00029", "nome": "Guabiruba", "rio": "Ribeirão Guabiruba do Norte", "municipio": "Guabiruba", "digital": true, "tem_dado": false, "nivel_m": null, "coleta": null, "coleta_ts": null, "variacao_cm": null, "chuva_mm": null, "fonte": null, "st": "#8a97a8", "pulse": false}}, {"type": "Feature", "geometry": {"type": "Point", "coordinates": [-48.91723, -27.100653]}, "properties": {"codigo": "DCSC-00019", "nome": "Brusque", "rio": "Rio Itajaí-Mirim", "municipio": "Brusque", "digital": true, "tem_dado": false, "nivel_m": null, "coleta": null, "coleta_ts": null, "variacao_cm": null, "chuva_mm": null, "fonte": null, "st": "#8a97a8", "pulse": false}}, {"type": "Feature", "geometry": {"type": "Point", "coordinates": [-48.856673, -27.032494]}, "properties": {"codigo": "DC-10", "nome": "Limoeiro", "rio": "Rio Itajaí-Mirim", "municipio": "Itajaí", "digital": true, "tem_dado": false, "nivel_m": null, "coleta": null, "coleta_ts": null, "variacao_cm": null, "chuva_mm": null, "fonte": null, "st": "#8a97a8", "pulse": false}}, {"type": "Feature", "geometry": {"type": "Point", "coordinates": [-48.723772, -26.914847]}, "properties": {"codigo": "DC-03", "nome": "Captação SEMASA", "rio": "Rio Itajaí-Mirim (canal retificado)", "municipio": "Itajaí", "digital": true, "tem_dado": false, "nivel_m": null, "coleta": null, "coleta_ts": null, "variacao_cm": null, "chuva_mm": null, "fonte": null, "st": "#8a97a8", "pulse": false}}, {"type": "Feature", "geometry": {"type": "Point", "coordinates": [-48.712018, -26.90777]}, "properties": {"codigo": "DC-04", "nome": "Vitalmar", "rio": "Rio Itajaí-Mirim (canal retificado)", "municipio": "Itajaí", "digital": true, "tem_dado": false, "nivel_m": null, "coleta": null, "coleta_ts": null, "variacao_cm": null, "chuva_mm": null, "fonte": null, "st": "#8a97a8", "pulse": false}}, {"type": "Feature", "geometry": {"type": "Point", "coordinates": [-48.708794, -26.930986]}, "properties": {"codigo": "DC-05", "nome": "Curso antigo", "rio": "Rio Itajaí-Mirim (Canal Antigo)", "municipio": "Itajaí", "digital": true, "tem_dado": false, "nivel_m": null, "coleta": null, "coleta_ts": null, "variacao_cm": null, "chuva_mm": null, "fonte": null, "st": "#8a97a8", "pulse": false}}, {"type": "Feature", "geometry": {"type": "Point", "coordinates": [-48.685893, -26.924206]}, "properties": {"codigo": "DC-06", "nome": "Itamirim", "rio": "Rio Itajaí-Mirim (Canal Antigo)", "municipio": "Itajaí", "digital": true, "tem_dado": false, "nivel_m": null, "coleta": null, "coleta_ts": null, "variacao_cm": null, "chuva_mm": null, "fonte": null, "st": "#8a97a8", "pulse": false}}]}