{"type": "FeatureCollection", "features": [{"type": "Feature", "properties": {"nome": "Kekafly III", "municipio": "BRUSQUE", "oaci": "SIKY", "ciad": "SC0106", "tipo": "heliponto", "altitude": "80,0", "dist_km": 1.9}, "geometry": {"type": "Point", "coordinates": [-48.916111, -27.1075]}}, {"type": "Feature", "properties": {"nome": "Havan", "municipio": "BRUSQUE", "oaci": "SDUX", "ciad": "SC0045", "tipo": "heliponto", "altitude": "77,0", "dist_km": 2.2}, "geometry": {"type": "Point", "coordinates": [-48.907222, -27.106944]}}, {"type": "Feature", "properties": {"nome": "OLIVEIRA", "municipio": "BRUSQUE", "oaci": "SJOT", "ciad": "SC0070", "tipo": "heliponto", "altitude": "40,0", "dist_km": 2.7}, "geometry": {"type": "Point", "coordinates": [-48.934167, -27.105556]}}, {"type": "Feature", "properties": {"nome": "Irmãos Hort", "municipio": "BRUSQUE", "oaci": "SINU", "ciad": "SC0104", "tipo": "heliponto", "altitude": "46,0", "dist_km": 3.1}, "geometry": {"type": "Point", "coordinates": [-48.946944, -27.117222]}}, {"type": "Feature", "properties": {"nome": "Innovare Hotel", "municipio": "BRUSQUE", "oaci": "SINO", "ciad": "SC0058", "tipo": "heliponto", "altitude": "76,0", "dist_km": 3.2}, "geometry": {"type": "Point", "coordinates": [-48.913889, -27.096111]}}, {"type": "Feature", "properties": {"nome": "Kekafly II", "municipio": "BRUSQUE", "oaci": "SIIV", "ciad": "SC0054", "tipo": "heliponto", "altitude": "35,0", "dist_km": 3.9}, "geometry": {"type": "Point", "coordinates": [-48.915278, -27.089167]}}, {"type": "Feature", "properties": {"nome": "Kekafly I", "municipio": "BRUSQUE", "oaci": "SIKB", "ciad": "SC0055", "tipo": "heliponto", "altitude": "47,0", "dist_km": 4.7}, "geometry": {"type": "Point", "coordinates": [-48.925556, -27.082778]}}, {"type": "Feature", "properties": {"nome": "Vargas", "municipio": "BRUSQUE", "oaci": "SNEV", "ciad": "SC0076", "tipo": "heliponto", "altitude": "46,0", "dist_km": 4.8}, "geometry": {"type": "Point", "coordinates": [-48.956667, -27.148889]}}, {"type": "Feature", "properties": {"nome": "HELIBRUSQUE", "municipio": "BRUSQUE", "oaci": "SWWB", "ciad": "SC0105", "tipo": "heliponto", "altitude": "20,0", "dist_km": 5.0}, "geometry": {"type": "Point", "coordinates": [-48.912778, -27.08]}}, {"type": "Feature", "properties": {"nome": "Hangar 77", "municipio": "GUABIRUBA", "oaci": "SDLS", "ciad": "SC0042", "tipo": "heliponto", "altitude": "32,0", "dist_km": 6.5}, "geometry": {"type": "Point", "coordinates": [-48.964722, -27.083611]}}, {"type": "Feature", "properties": {"nome": "Marrecão", "municipio": "BRUSQUE", "oaci": "SIPM", "ciad": "SC0116", "tipo": "heliponto", "altitude": "17,0", "dist_km": 6.9}, "geometry": {"type": "Point", "coordinates": [-48.891389, -27.066389]}}, {"type": "Feature", "properties": {"nome": "FAZENDA AERO-AMIL", "municipio": "ITAJAÍ", "oaci": "SWJA", "ciad": "SC0040", "tipo": "aerodromo", "altitude": "22,0", "dist_km": 13.5}, "geometry": {"type": "Point", "coordinates": [-48.853333, -27.0175]}}, {"type": "Feature", "properties": {"nome": "Fazzenda Park Hotel", "municipio": "GASPAR", "oaci": "SN8M", "ciad": "SC0203", "tipo": "heliponto", "altitude": "28,0", "dist_km": 16.0}, "geometry": {"type": "Point", "coordinates": [-48.930556, -26.981389]}}, {"type": "Feature", "properties": {"nome": "Campo Comandantes", "municipio": "ITAJAÍ", "oaci": "SIJY", "ciad": "SC0027", "tipo": "aerodromo", "altitude": "10,0", "dist_km": 18.9}, "geometry": {"type": "Point", "coordinates": [-48.814167, -26.980833]}}, {"type": "Feature", "properties": {"nome": "Caledonia", "municipio": "CAMBORIÚ", "oaci": "SN2I", "ciad": "SC0209", "tipo": "heliponto", "altitude": "6,0", "dist_km": 26.0}, "geometry": {"type": "Point", "coordinates": [-48.671667, -27.041389]}}, {"type": "Feature", "properties": {"nome": "Hospital Santa Isabel", "municipio": "BLUMENAU", "oaci": "SSCZ", "ciad": "SC0088", "tipo": "heliponto", "altitude": "47,0", "dist_km": 26.7}, "geometry": {"type": "Point", "coordinates": [-49.066389, -26.923889]}}, {"type": "Feature", "properties": {"nome": "Ibiza Blumenau", "municipio": "BLUMENAU", "oaci": "SNJY", "ciad": "SC0102", "tipo": "heliponto", "altitude": "106,0", "dist_km": 28.8}, "geometry": {"type": "Point", "coordinates": [-49.0875, -26.914444]}}, {"type": "Feature", "properties": {"nome": "Aeroportobelo", "municipio": "PORTO BELO", "oaci": "SDYS", "ciad": "SC0024", "tipo": "aerodromo", "altitude": "12,0", "dist_km": 28.8}, "geometry": {"type": "Point", "coordinates": [-48.631667, -27.175]}}, {"type": "Feature", "properties": {"nome": "Helicentro CGRANZA", "municipio": "CAMBORIÚ", "oaci": "SD7V", "ciad": "SC0228", "tipo": "heliponto", "altitude": "38,0", "dist_km": 29.0}, "geometry": {"type": "Point", "coordinates": [-48.663889, -26.993611]}}, {"type": "Feature", "properties": {"nome": "Petrasalis", "municipio": "ITAJAÍ", "oaci": "SS4G", "ciad": "SC0246", "tipo": "heliponto", "altitude": "7,7", "dist_km": 29.1}, "geometry": {"type": "Point", "coordinates": [-48.750556, -26.908611]}}, {"type": "Feature", "properties": {"nome": "Cipriani", "municipio": "BLUMENAU", "oaci": "SIC9", "ciad": "SC0210", "tipo": "heliponto", "altitude": "42,0", "dist_km": 29.2}, "geometry": {"type": "Point", "coordinates": [-49.094167, -26.914722]}}, {"type": "Feature", "properties": {"nome": "COSTA ESMERALDA", "municipio": "PORTO BELO", "oaci": "SDEN", "ciad": "SC0023", "tipo": "aerodromo", "altitude": "6,0", "dist_km": 29.6}, "geometry": {"type": "Point", "coordinates": [-48.621667, -27.166389]}}, {"type": "Feature", "properties": {"nome": "Heliponto Privado Ninho do Pássaro IV", "municipio": "CAMBORIÚ", "oaci": "SDV2", "ciad": "SC0199", "tipo": "heliponto", "altitude": "7,0", "dist_km": 30.0}, "geometry": {"type": "Point", "coordinates": [-48.645833, -27.004167]}}, {"type": "Feature", "properties": {"nome": "Komprão Itapema", "municipio": "ITAPEMA", "oaci": "SSXI", "ciad": "SC0123", "tipo": "heliponto", "altitude": "5,0", "dist_km": 30.1}, "geometry": {"type": "Point", "coordinates": [-48.613056, -27.129444]}}, {"type": "Feature", "properties": {"nome": "Siframar", "municipio": "ITAPEMA", "oaci": "SIWP", "ciad": "SC0062", "tipo": "heliponto", "altitude": "70,0", "dist_km": 30.6}, "geometry": {"type": "Point", "coordinates": [-48.608611, -27.117222]}}, {"type": "Feature", "properties": {"nome": "N1 Meia Praia", "municipio": "ITAPEMA", "oaci": "SNP2", "ciad": "SC0247", "tipo": "heliponto", "altitude": "4,0", "dist_km": 30.9}, "geometry": {"type": "Point", "coordinates": [-48.605, -27.125]}}, {"type": "Feature", "properties": {"nome": "Soldado PM Pedro José Rodrigues", "municipio": "BALNEÁRIO CAMBORIÚ", "oaci": "SD76", "ciad": "SC0107", "tipo": "heliponto", "altitude": "27,0", "dist_km": 31.0}, "geometry": {"type": "Point", "coordinates": [-48.65, -26.978611]}}, {"type": "Feature", "properties": {"nome": "Canto da Praia", "municipio": "ITAPEMA", "oaci": "SIPC", "ciad": "SC0059", "tipo": "heliponto", "altitude": "1,0", "dist_km": 31.1}, "geometry": {"type": "Point", "coordinates": [-48.604444, -27.093611]}}, {"type": "Feature", "properties": {"nome": "Vokkan Vivapark", "municipio": "PORTO BELO", "oaci": "SIVE", "ciad": "SC0185", "tipo": "heliponto", "altitude": "7,0", "dist_km": 31.2}, "geometry": {"type": "Point", "coordinates": [-48.605, -27.161389]}}, {"type": "Feature", "properties": {"nome": "T & T", "municipio": "BLUMENAU", "oaci": "SWCG", "ciad": "SC0183", "tipo": "heliponto", "altitude": "18,0", "dist_km": 31.2}, "geometry": {"type": "Point", "coordinates": [-49.087222, -26.887778]}}, {"type": "Feature", "properties": {"nome": "Helisilva", "municipio": "BALNEÁRIO CAMBORIÚ", "oaci": "SJKD", "ciad": "SC0068", "tipo": "heliponto", "altitude": "19,0", "dist_km": 31.3}, "geometry": {"type": "Point", "coordinates": [-48.621111, -27.026389]}}, {"type": "Feature", "properties": {"nome": "DZ47", "municipio": "TIJUCAS", "oaci": "SIZD", "ciad": "SC0103", "tipo": "aerodromo", "altitude": "2,0", "dist_km": 31.4}, "geometry": {"type": "Point", "coordinates": [-48.658056, -27.287778]}}, {"type": "Feature", "properties": {"nome": "Baltt", "municipio": "BALNEÁRIO CAMBORIÚ", "oaci": "SNTJ", "ciad": "SC0081", "tipo": "heliponto", "altitude": "3,0", "dist_km": 31.7}, "geometry": {"type": "Point", "coordinates": [-48.623889, -27.009722]}}, {"type": "Feature", "properties": {"nome": "Harmony", "municipio": "BALNEÁRIO CAMBORIÚ", "oaci": "SNAA", "ciad": "SC0108", "tipo": "heliponto", "altitude": "182,0", "dist_km": 32.0}, "geometry": {"type": "Point", "coordinates": [-48.632778, -26.987222]}}, {"type": "Feature", "properties": {"nome": "Marina Beach Tower", "municipio": "BALNEÁRIO CAMBORIÚ", "oaci": "SIHN", "ciad": "SC0052", "tipo": "heliponto", "altitude": "8,0", "dist_km": 32.2}, "geometry": {"type": "Point", "coordinates": [-48.620556, -27.005556]}}, {"type": "Feature", "properties": {"nome": "Russi e Russi 2", "municipio": "ITAPEMA", "oaci": "SJKR", "ciad": "SC0069", "tipo": "heliponto", "altitude": "6,0", "dist_km": 32.2}, "geometry": {"type": "Point", "coordinates": [-48.592222, -27.144444]}}, {"type": "Feature", "properties": {"nome": "Zona 01", "municipio": "ITAPEMA", "oaci": "SNNZ", "ciad": "SC0079", "tipo": "heliponto", "altitude": "7,0", "dist_km": 32.2}, "geometry": {"type": "Point", "coordinates": [-48.591944, -27.141944]}}, {"type": "Feature", "properties": {"nome": "Ninho das Águias", "municipio": "BALNEÁRIO CAMBORIÚ", "oaci": "SD5J", "ciad": "SC0249", "tipo": "heliponto", "altitude": "2,0", "dist_km": 32.6}, "geometry": {"type": "Point", "coordinates": [-48.615, -27.008611]}}, {"type": "Feature", "properties": {"nome": "Yachthouse 01", "municipio": "BALNEÁRIO CAMBORIÚ", "oaci": "SNXW", "ciad": "SC0147", "tipo": "heliponto", "altitude": "279,0", "dist_km": 33.3}, "geometry": {"type": "Point", "coordinates": [-48.607222, -27.007778]}}, {"type": "Feature", "properties": {"nome": "Yachthouse 02", "municipio": "BALNEÁRIO CAMBORIÚ", "oaci": "SSYM", "ciad": "SC0149", "tipo": "heliponto", "altitude": "279,0", "dist_km": 33.4}, "geometry": {"type": "Point", "coordinates": [-48.606944, -27.0075]}}, {"type": "Feature", "properties": {"nome": "Riviera", "municipio": "ITAJAÍ", "oaci": "SSRV", "ciad": "SC0096", "tipo": "heliponto", "altitude": "77,0", "dist_km": 33.5}, "geometry": {"type": "Point", "coordinates": [-48.639444, -26.9525]}}, {"type": "Feature", "properties": {"nome": "Brava Beach Internacional", "municipio": "ITAJAÍ", "oaci": "SI3H", "ciad": "SC0192", "tipo": "heliponto", "altitude": "17,0", "dist_km": 34.1}, "geometry": {"type": "Point", "coordinates": [-48.633056, -26.951944]}}, {"type": "Feature", "properties": {"nome": "Hemmer", "municipio": "BLUMENAU", "oaci": "SSES", "ciad": "SC0188", "tipo": "heliponto", "altitude": "", "dist_km": 34.5}, "geometry": {"type": "Point", "coordinates": [-49.138333, -26.884444]}}, {"type": "Feature", "properties": {"nome": "Posthaus", "municipio": "BLUMENAU", "oaci": "SJUP", "ciad": "SC0073", "tipo": "heliponto", "altitude": "32,0", "dist_km": 34.9}, "geometry": {"type": "Point", "coordinates": [-49.139167, -26.880556]}}, {"type": "Feature", "properties": {"nome": "Santa Clara", "municipio": "BLUMENAU", "oaci": "SI69", "ciad": "SC0204", "tipo": "heliponto", "altitude": "30,0", "dist_km": 35.0}, "geometry": {"type": "Point", "coordinates": [-49.145, -26.884167]}}, {"type": "Feature", "properties": {"nome": "Hospital e Maternidade Marieta Konder Bornhausen", "municipio": "NAVEGANTES", "oaci": "", "ciad": "SC0189", "tipo": "heliponto", "altitude": "71,0", "dist_km": 35.1}, "geometry": {"type": "Point", "coordinates": [-48.658056, -26.909167]}}, {"type": "Feature", "properties": {"nome": "Bravíssima Private Residence", "municipio": "ITAJAÍ", "oaci": "SNPB", "ciad": "SC0110", "tipo": "heliponto", "altitude": "77,0", "dist_km": 35.2}, "geometry": {"type": "Point", "coordinates": [-48.633056, -26.934167]}}, {"type": "Feature", "properties": {"nome": "Zen Tower", "municipio": "ITAJAÍ", "oaci": "SDZQ", "ciad": "SC0171", "tipo": "heliponto", "altitude": "", "dist_km": 35.5}, "geometry": {"type": "Point", "coordinates": [-48.656944, -26.905]}}, {"type": "Feature", "properties": {"nome": "Ninho do Pássaro", "municipio": "NAVEGANTES", "oaci": "SIRG", "ciad": "SC0176", "tipo": "heliponto", "altitude": "10,0", "dist_km": 37.4}, "geometry": {"type": "Point", "coordinates": [-48.666667, -26.873056]}}, {"type": "Feature", "properties": {"nome": "NAVEPARK", "municipio": "NAVEGANTES", "oaci": "SN3V", "ciad": "SC0227", "tipo": "heliponto", "altitude": "", "dist_km": 38.0}, "geometry": {"type": "Point", "coordinates": [-48.711944, -26.836111]}}, {"type": "Feature", "properties": {"nome": "ICPB", "municipio": "PORTO BELO", "oaci": "SWVB", "ciad": "SC0206", "tipo": "heliponto", "altitude": "", "dist_km": 38.1}, "geometry": {"type": "Point", "coordinates": [-48.5325, -27.143333]}}, {"type": "Feature", "properties": {"nome": "Fly Ville", "municipio": "GOVERNADOR CELSO RAMOS", "oaci": "SJSH", "ciad": "SC0032", "tipo": "aerodromo", "altitude": "8,0", "dist_km": 40.6}, "geometry": {"type": "Point", "coordinates": [-48.613611, -27.370556]}}, {"type": "Feature", "properties": {"nome": "WF", "municipio": "POMERODE", "oaci": "SNPK", "ciad": "SC0080", "tipo": "heliponto", "altitude": "51,0", "dist_km": 40.6}, "geometry": {"type": "Point", "coordinates": [-49.146667, -26.821389]}}, {"type": "Feature", "properties": {"nome": "CANTO GRANDE", "municipio": "BOMBINHAS", "oaci": "SD7I", "ciad": "SC0198", "tipo": "heliponto", "altitude": "", "dist_km": 41.2}, "geometry": {"type": "Point", "coordinates": [-48.506944, -27.186944]}}, {"type": "Feature", "properties": {"nome": "Alceu Feldmann", "municipio": "BOMBINHAS", "oaci": "SIWL", "ciad": "SC0061", "tipo": "heliponto", "altitude": "5,0", "dist_km": 41.4}, "geometry": {"type": "Point", "coordinates": [-48.505556, -27.190556]}}, {"type": "Feature", "properties": {"nome": "Vila do Farol", "municipio": "BOMBINHAS", "oaci": "SSVF", "ciad": "SC0097", "tipo": "heliponto", "altitude": "37,0", "dist_km": 41.5}, "geometry": {"type": "Point", "coordinates": [-48.498333, -27.149167]}}, {"type": "Feature", "properties": {"nome": "Ninho do Pássaro III", "municipio": "INDAIAL", "oaci": "SDZP", "ciad": "SC0112", "tipo": "heliponto", "altitude": "", "dist_km": 41.8}, "geometry": {"type": "Point", "coordinates": [-49.243056, -26.885278]}}, {"type": "Feature", "properties": {"nome": "NATHOR", "municipio": "BLUMENAU", "oaci": "SD89", "ciad": "SC0180", "tipo": "heliponto", "altitude": "", "dist_km": 42.9}, "geometry": {"type": "Point", "coordinates": [-49.0775, -26.765833]}}, {"type": "Feature", "properties": {"nome": "AVALON", "municipio": "PENHA", "oaci": "SIC2", "ciad": "SC0233", "tipo": "heliponto", "altitude": "15,0", "dist_km": 43.2}, "geometry": {"type": "Point", "coordinates": [-48.658611, -26.811944]}}, {"type": "Feature", "properties": {"nome": "Baltt", "municipio": "PENHA", "oaci": "SJET", "ciad": "SC0067", "tipo": "heliponto", "altitude": "20,0", "dist_km": 44.2}, "geometry": {"type": "Point", "coordinates": [-48.671111, -26.793056]}}, {"type": "Feature", "properties": {"nome": "Caju", "municipio": "TIMBÓ", "oaci": "SID2", "ciad": "SC0237", "tipo": "heliponto", "altitude": "89,0", "dist_km": 44.2}, "geometry": {"type": "Point", "coordinates": [-49.228056, -26.838889]}}, {"type": "Feature", "properties": {"nome": "Portal Piçarras", "municipio": "BALNEÁRIO PIÇARRAS", "oaci": "SJHP", "ciad": "SC0161", "tipo": "heliponto", "altitude": "32,0", "dist_km": 44.3}, "geometry": {"type": "Point", "coordinates": [-48.688611, -26.782222]}}, {"type": "Feature", "properties": {"nome": "Blue", "municipio": "TIMBÓ", "oaci": "SDX8", "ciad": "SC0115", "tipo": "heliponto", "altitude": "71,0", "dist_km": 45.4}, "geometry": {"type": "Point", "coordinates": [-49.256667, -26.849722]}}, {"type": "Feature", "properties": {"nome": "Ninho do Pássaro II", "municipio": "LUIZ ALVES", "oaci": "SD6I", "ciad": "SC0111", "tipo": "heliponto", "altitude": "61,0", "dist_km": 45.7}, "geometry": {"type": "Point", "coordinates": [-48.913333, -26.713611]}}, {"type": "Feature", "properties": {"nome": "Gratidão", "municipio": "BALNEÁRIO PIÇARRAS", "oaci": "SS79", "ciad": "SC0251", "tipo": "heliponto", "altitude": "4,8", "dist_km": 46.2}, "geometry": {"type": "Point", "coordinates": [-48.680833, -26.766111]}}, {"type": "Feature", "properties": {"nome": "Interpolos", "municipio": "TIMBÓ", "oaci": "SSIP", "ciad": "SC0092", "tipo": "heliponto", "altitude": "64,0", "dist_km": 46.4}, "geometry": {"type": "Point", "coordinates": [-49.2675, -26.8475]}}, {"type": "Feature", "properties": {"nome": "Deltaville", "municipio": "BIGUAÇU", "oaci": "SS77", "ciad": "SC0253", "tipo": "heliponto", "altitude": "4,1", "dist_km": 46.5}, "geometry": {"type": "Point", "coordinates": [-48.668889, -27.479722]}}, {"type": "Feature", "properties": {"nome": "BCW", "municipio": "PENHA", "oaci": "SJYA", "ciad": "SC0074", "tipo": "heliponto", "altitude": "10,0", "dist_km": 47.1}, "geometry": {"type": "Point", "coordinates": [-48.612778, -26.799444]}}, {"type": "Feature", "properties": {"nome": "Recanto das Marés", "municipio": "GOVERNADOR CELSO RAMOS", "oaci": "SILM", "ciad": "SC0056", "tipo": "heliponto", "altitude": "64,0", "dist_km": 47.5}, "geometry": {"type": "Point", "coordinates": [-48.530833, -27.378056]}}, {"type": "Feature", "properties": {"nome": "Bon Voyage", "municipio": "POMERODE", "oaci": "SD40", "ciad": "SC0224", "tipo": "heliponto", "altitude": "59,0", "dist_km": 47.8}, "geometry": {"type": "Point", "coordinates": [-49.173889, -26.760833]}}, {"type": "Feature", "properties": {"nome": "Unifique", "municipio": "TIMBÓ", "oaci": "SJEU", "ciad": "SC0173", "tipo": "heliponto", "altitude": "74,0", "dist_km": 48.9}, "geometry": {"type": "Point", "coordinates": [-49.2725, -26.819444]}}, {"type": "Feature", "properties": {"nome": "Helisul Slin", "municipio": "SÃO JOSÉ", "oaci": "SNVX", "ciad": "SC0083", "tipo": "heliponto", "altitude": "19,0", "dist_km": 54.7}, "geometry": {"type": "Point", "coordinates": [-48.624722, -27.542222]}}, {"type": "Feature", "properties": {"nome": "Academia Nacional da Polícia Rodoviária Federal", "municipio": "FLORIANÓPOLIS", "oaci": "SJTA", "ciad": "SC0071", "tipo": "heliponto", "altitude": "9,0", "dist_km": 58.2}, "geometry": {"type": "Point", "coordinates": [-48.461389, -27.455833]}}, {"type": "Feature", "properties": {"nome": "Fly Park Florianópolis", "municipio": "FLORIANÓPOLIS", "oaci": "SNFY", "ciad": "SC0034", "tipo": "aerodromo", "altitude": "5,0", "dist_km": 58.5}, "geometry": {"type": "Point", "coordinates": [-48.471111, -27.47]}}, {"type": "Feature", "properties": {"nome": "Parada Havan", "municipio": "BARRA VELHA", "oaci": "SDXN", "ciad": "SC0046", "tipo": "heliponto", "altitude": "14,0", "dist_km": 58.6}, "geometry": {"type": "Point", "coordinates": [-48.700556, -26.634444]}}, {"type": "Feature", "properties": {"nome": "Aeroclube de Santa Catarina", "municipio": "SÃO JOSÉ", "oaci": "SSKT", "ciad": "SC0038", "tipo": "aerodromo", "altitude": "7,0", "dist_km": 59.3}, "geometry": {"type": "Point", "coordinates": [-48.673333, -27.611944]}}, {"type": "Feature", "properties": {"nome": "Emphos", "municipio": "SÃO JOSÉ", "oaci": "SSJE", "ciad": "SC0095", "tipo": "heliponto", "altitude": "68,0", "dist_km": 59.7}, "geometry": {"type": "Point", "coordinates": [-48.611389, -27.587222]}}, {"type": "Feature", "properties": {"nome": "Pré-Fabricar", "municipio": "IBIRAMA", "oaci": "SS9F", "ciad": "SC0254", "tipo": "heliponto", "altitude": "382,0", "dist_km": 60.1}, "geometry": {"type": "Point", "coordinates": [-49.524444, -27.104722]}}, {"type": "Feature", "properties": {"nome": "SC401 Square Corporate", "municipio": "FLORIANÓPOLIS", "oaci": "SSCC", "ciad": "SC0087", "tipo": "heliponto", "altitude": "35,0", "dist_km": 60.8}, "geometry": {"type": "Point", "coordinates": [-48.509722, -27.534444]}}, {"type": "Feature", "properties": {"nome": "Via Catarina", "municipio": "PALHOÇA", "oaci": "SWVT", "ciad": "SC0100", "tipo": "heliponto", "altitude": "51,0", "dist_km": 62.4}, "geometry": {"type": "Point", "coordinates": [-48.673056, -27.641944]}}, {"type": "Feature", "properties": {"nome": "INCAPE", "municipio": "BENEDITO NOVO", "oaci": "SN2V", "ciad": "SC0229", "tipo": "heliponto", "altitude": "331,0", "dist_km": 62.7}, "geometry": {"type": "Point", "coordinates": [-49.417778, -26.779167]}}, {"type": "Feature", "properties": {"nome": "Polícia Federal Florianópolis", "municipio": "FLORIANÓPOLIS", "oaci": "SDSF", "ciad": "SC0044", "tipo": "heliponto", "altitude": "27,0", "dist_km": 62.8}, "geometry": {"type": "Point", "coordinates": [-48.531389, -27.572778]}}, {"type": "Feature", "properties": {"nome": "Casa do Governador SC", "municipio": "FLORIANÓPOLIS", "oaci": "SDK5", "ciad": "SC0135", "tipo": "heliponto", "altitude": "16,0", "dist_km": 62.8}, "geometry": {"type": "Point", "coordinates": [-48.5325, -27.573889]}}, {"type": "Feature", "properties": {"nome": "Milano", "municipio": "FLORIANÓPOLIS", "oaci": "SDWW", "ciad": "SC0117", "tipo": "heliponto", "altitude": "72,0", "dist_km": 63.4}, "geometry": {"type": "Point", "coordinates": [-48.5425, -27.5875]}}, {"type": "Feature", "properties": {"nome": "Helisai", "municipio": "SANTO AMARO DA IMPERATRIZ", "oaci": "SD6W", "ciad": "SC0194", "tipo": "heliponto", "altitude": "", "dist_km": 63.6}, "geometry": {"type": "Point", "coordinates": [-48.766111, -27.680556]}}, {"type": "Feature", "properties": {"nome": "Costão", "municipio": "FLORIANÓPOLIS", "oaci": "SINL", "ciad": "SC0057", "tipo": "heliponto", "altitude": "42,0", "dist_km": 64.9}, "geometry": {"type": "Point", "coordinates": [-48.3825, -27.463611]}}, {"type": "Feature", "properties": {"nome": "Juarez Filho", "municipio": "PALHOÇA", "oaci": "SW1O", "ciad": "SC0257", "tipo": "heliponto", "altitude": "", "dist_km": 65.6}, "geometry": {"type": "Point", "coordinates": [-48.6725, -27.673056]}}, {"type": "Feature", "properties": {"nome": "Clube de Aviação Céu Azul", "municipio": "ARAQUARI", "oaci": "SWON", "ciad": "SC0041", "tipo": "aerodromo", "altitude": "5,0", "dist_km": 66.3}, "geometry": {"type": "Point", "coordinates": [-48.696111, -26.561389]}}, {"type": "Feature", "properties": {"nome": "Albor", "municipio": "ARAQUARI", "oaci": "SNWA", "ciad": "SC0084", "tipo": "heliponto", "altitude": "6,0", "dist_km": 66.5}, "geometry": {"type": "Point", "coordinates": [-48.699722, -26.558889]}}, {"type": "Feature", "properties": {"nome": "FIESC", "municipio": "FLORIANÓPOLIS", "oaci": "SIFL", "ciad": "SC0049", "tipo": "heliponto", "altitude": "32,0", "dist_km": 66.8}, "geometry": {"type": "Point", "coordinates": [-48.493056, -27.592222]}}, {"type": "Feature", "properties": {"nome": "Nanete Têxtil", "municipio": "JARAGUÁ DO SUL", "oaci": "SSFT", "ciad": "SC0090", "tipo": "heliponto", "altitude": "46,0", "dist_km": 68.6}, "geometry": {"type": "Point", "coordinates": [-49.132778, -26.538056]}}, {"type": "Feature", "properties": {"nome": "Malwee", "municipio": "JARAGUÁ DO SUL", "oaci": "SNYM", "ciad": "SC0085", "tipo": "heliponto", "altitude": "43,0", "dist_km": 70.6}, "geometry": {"type": "Point", "coordinates": [-49.126944, -26.518056]}}, {"type": "Feature", "properties": {"nome": "Villa Cora", "municipio": "JARAGUÁ DO SUL", "oaci": "SI12", "ciad": "SC0265", "tipo": "heliponto", "altitude": "35,0", "dist_km": 71.1}, "geometry": {"type": "Point", "coordinates": [-49.114167, -26.509167]}}, {"type": "Feature", "properties": {"nome": "FAZENDA JOÃO E MARIA", "municipio": "ITUPORANGA", "oaci": "SS7R", "ciad": "SC0250", "tipo": "heliponto", "altitude": "608,0", "dist_km": 71.3}, "geometry": {"type": "Point", "coordinates": [-49.550556, -27.432222]}}, {"type": "Feature", "properties": {"nome": "Duas Rodas", "municipio": "JARAGUÁ DO SUL", "oaci": "SJDR", "ciad": "SC0065", "tipo": "heliponto", "altitude": "26,0", "dist_km": 72.4}, "geometry": {"type": "Point", "coordinates": [-49.064722, -26.486667]}}, {"type": "Feature", "properties": {"nome": "Hospital São José", "municipio": "JARAGUÁ DO SUL", "oaci": "SWLO", "ciad": "SC0098", "tipo": "heliponto", "altitude": "60,0", "dist_km": 72.6}, "geometry": {"type": "Point", "coordinates": [-49.084722, -26.488889]}}, {"type": "Feature", "properties": {"nome": "Lunelli", "municipio": "GUARAMIRIM", "oaci": "SIXY", "ciad": "SC0064", "tipo": "heliponto", "altitude": "23,0", "dist_km": 72.8}, "geometry": {"type": "Point", "coordinates": [-48.989722, -26.472778]}}, {"type": "Feature", "properties": {"nome": "Marisol", "municipio": "JARAGUÁ DO SUL", "oaci": "SIIM", "ciad": "SC0053", "tipo": "heliponto", "altitude": "50,0", "dist_km": 72.9}, "geometry": {"type": "Point", "coordinates": [-49.064167, -26.482222]}}, {"type": "Feature", "properties": {"nome": "Voigtland", "municipio": "JARAGUÁ DO SUL", "oaci": "SIH4", "ciad": "SC0238", "tipo": "heliponto", "altitude": "", "dist_km": 73.2}, "geometry": {"type": "Point", "coordinates": [-49.054167, -26.4775]}}, {"type": "Feature", "properties": {"nome": "Sebold", "municipio": "JARAGUÁ DO SUL", "oaci": "SNW2", "ciad": "SC0252", "tipo": "heliponto", "altitude": "53,0", "dist_km": 74.0}, "geometry": {"type": "Point", "coordinates": [-49.104167, -26.480556]}}, {"type": "Feature", "properties": {"nome": "Maximus", "municipio": "ITUPORANGA", "oaci": "SJUM", "ciad": "SC0072", "tipo": "heliponto", "altitude": "410,0", "dist_km": 74.9}, "geometry": {"type": "Point", "coordinates": [-49.601667, -27.414444]}}, {"type": "Feature", "properties": {"nome": "BOLD", "municipio": "JARAGUÁ DO SUL", "oaci": "SI3S", "ciad": "SC0201", "tipo": "heliponto", "altitude": "30,0", "dist_km": 77.3}, "geometry": {"type": "Point", "coordinates": [-49.059167, -26.441111]}}, {"type": "Feature", "properties": {"nome": "Vale Europeu", "municipio": "GUARAMIRIM", "oaci": "SJVL", "ciad": "SC0033", "tipo": "aerodromo", "altitude": "12,0", "dist_km": 78.1}, "geometry": {"type": "Point", "coordinates": [-48.876389, -26.422778]}}, {"type": "Feature", "properties": {"nome": "MHL", "municipio": "JARAGUÁ DO SUL", "oaci": "SS9L", "ciad": "SC0255", "tipo": "heliponto", "altitude": "44,0", "dist_km": 81.5}, "geometry": {"type": "Point", "coordinates": [-49.109444, -26.411389]}}, {"type": "Feature", "properties": {"nome": "Tigre", "municipio": "JOINVILLE", "oaci": "SNMQ", "ciad": "SC0078", "tipo": "heliponto", "altitude": "33,0", "dist_km": 89.9}, "geometry": {"type": "Point", "coordinates": [-48.866111, -26.316944]}}, {"type": "Feature", "properties": {"nome": "Rancho Sumidor", "municipio": "RIO DO OESTE", "oaci": "SNZB", "ciad": "SC0036", "tipo": "aerodromo", "altitude": "450,0", "dist_km": 90.8}, "geometry": {"type": "Point", "coordinates": [-49.831389, -27.191944]}}, {"type": "Feature", "properties": {"nome": "Tino", "municipio": "JOINVILLE", "oaci": "SISQ", "ciad": "SC0060", "tipo": "heliponto", "altitude": "20,0", "dist_km": 91.0}, "geometry": {"type": "Point", "coordinates": [-48.933333, -26.306389]}}, {"type": "Feature", "properties": {"nome": "Vila Nova", "municipio": "JOINVILLE", "oaci": "SNNV", "ciad": "SC0035", "tipo": "aerodromo", "altitude": "21,0", "dist_km": 91.0}, "geometry": {"type": "Point", "coordinates": [-48.934722, -26.306389]}}, {"type": "Feature", "properties": {"nome": "Shopping Mueller", "municipio": "JOINVILLE", "oaci": "SD71", "ciad": "SC0259", "tipo": "heliponto", "altitude": "23,0", "dist_km": 91.6}, "geometry": {"type": "Point", "coordinates": [-48.848889, -26.303056]}}, {"type": "Feature", "properties": {"nome": "Walter Ewaldo Siegel", "municipio": "TROMBUDO CENTRAL", "oaci": "SSTJ", "ciad": "SC0039", "tipo": "aerodromo", "altitude": "403,0", "dist_km": 92.7}, "geometry": {"type": "Point", "coordinates": [-49.820556, -27.348611]}}, {"type": "Feature", "properties": {"nome": "Hospital Unimed Joinville", "municipio": "JOINVILLE", "oaci": "SIXH", "ciad": "SC0063", "tipo": "heliponto", "altitude": "6,0", "dist_km": 93.2}, "geometry": {"type": "Point", "coordinates": [-48.845556, -26.288889]}}, {"type": "Feature", "properties": {"nome": "HELICENTRO CATARINA", "municipio": "JOINVILLE", "oaci": "SN26", "ciad": "SC0211", "tipo": "heliponto", "altitude": "", "dist_km": 94.5}, "geometry": {"type": "Point", "coordinates": [-48.906389, -26.275]}}, {"type": "Feature", "properties": {"nome": "Pitangueira", "municipio": "AGROLÂNDIA", "oaci": "SSFF", "ciad": "SC0089", "tipo": "heliponto", "altitude": "377,0", "dist_km": 94.5}, "geometry": {"type": "Point", "coordinates": [-49.830556, -27.376111]}}, {"type": "Feature", "properties": {"nome": "Blumenau", "municipio": "BLUMENAU", "oaci": "SSBL", "ciad": "SC0019", "tipo": "aeroporto", "altitude": "18,0", "dist_km": 36.9}, "geometry": {"type": "Point", "coordinates": [-49.093611, -26.831667]}}, {"type": "Feature", "properties": {"nome": "Ministro Victor Konder", "municipio": "NAVEGANTES", "oaci": "SBNF", "ciad": "SC0002", "tipo": "aeroporto", "altitude": "5,0", "dist_km": 38.0}, "geometry": {"type": "Point", "coordinates": [-48.650833, -26.878611]}}, {"type": "Feature", "properties": {"nome": "Helmuth Baungartem", "municipio": "LONTRAS", "oaci": "SSLN", "ciad": "SC0018", "tipo": "aeroporto", "altitude": "334,0", "dist_km": 62.0}, "geometry": {"type": "Point", "coordinates": [-49.542778, -27.159722]}}, {"type": "Feature", "properties": {"nome": "Hercílio Luz", "municipio": "FLORIANÓPOLIS", "oaci": "SBFL", "ciad": "SC0001", "tipo": "aeroporto", "altitude": "5,0", "dist_km": 70.6}, "geometry": {"type": "Point", "coordinates": [-48.5525, -27.670278]}}]}