{"type": "FeatureCollection", "name": "brusque_municipio", "crs": {"type": "name", "properties": {"name": "urn:ogc:def:crs:OGC:1.3:CRS84"}}, "features": [{"type": "Feature", "properties": {"nome": "Brusque", "tipo": "limite_municipal", "admin_level": 8, "uf": "SC", "wikidata": "Q329488", "fonte": "OpenStreetMap (ODbL)"}, "geometry": {"type": "MultiPolygon", "coordinates": [[[[-49.0214023, -27.1449238], [-49.0209829, -27.1446418], [-49.0203211, -27.1442934], [-49.0189695, -27.1440031], [-49.018424, -27.1441573], [-49.0179628, -27.1443266], [-49.0164715, -27.1446916], [-49.0160054, -27.1449155], [-49.0154089, -27.1446335], [-49.0139175, -27.1436216], [-49.0130879, -27.142817], [-49.012277, -27.1423442], [-49.0112424, -27.1422115], [-49.010478, -27.1424272], [-49.0092477, -27.1423857], [-49.0088748, -27.1427092], [-49.0086418, -27.1432732], [-49.0076444, -27.1437294], [-49.006992, -27.1438787], [-49.005976, -27.1438124], [-49.0052396, -27.1437211], [-49.0045126, -27.1432981], [-49.003944, -27.1431239], [-49.0035245, -27.1432317], [-49.0030678, -27.1436796], [-49.0024433, -27.144169], [-49.0017722, -27.1452141], [-49.0012316, -27.1461099], [-49.0002435, -27.1469891], [-48.9989101, -27.1474974], [-48.9980717, -27.1472213], [-48.9974099, -27.1465827], [-48.9967429, -27.1459554], [-48.9957012, -27.1456475], [-48.9944865, -27.1454268], [-48.9931782, -27.1455376], [-48.992713, -27.1455939], [-48.9921941, -27.1458889], [-48.9917614, -27.1460684], [-48.9910343, -27.1461597], [-48.9899786, -27.1460752], [-48.9892383, -27.1459702], [-48.9884444, -27.1457028], [-48.9880474, -27.1454164], [-48.9879126, -27.1452203], [-48.9879401, -27.144414], [-48.9882727, -27.1438125], [-48.9884825, -27.1435572], [-48.9884506, -27.143279], [-48.9878764, -27.1429667], [-48.9871426, -27.1424045], [-48.986613, -27.1418481], [-48.9861269, -27.141397], [-48.9856549, -27.1408624], [-48.9852901, -27.1405569], [-48.984847, -27.1401885], [-48.9843606, -27.139744], [-48.9838852, -27.1393047], [-48.9833144, -27.139158], [-48.9829384, -27.1392016], [-48.9827342, -27.1394362], [-48.9829019, -27.1398127], [-48.9827305, -27.1402865], [-48.9821143, -27.1411584], [-48.981447, -27.1414963], [-48.9807814, -27.1418765], [-48.98035, -27.1423009], [-48.9804336, -27.1427444], [-48.980715, -27.143067], [-48.9812594, -27.1434501], [-48.9814942, -27.1437635], [-48.9813679, -27.1441971], [-48.981007, -27.1443979], [-48.9804655, -27.144438], [-48.9792473, -27.1441088], [-48.9787641, -27.1440603], [-48.9784352, -27.1440847], [-48.9781555, -27.1442012], [-48.978125, -27.1442863], [-48.9780201, -27.1445785], [-48.9781194, -27.1448917], [-48.9782367, -27.1452812], [-48.9782954, -27.1455582], [-48.9782367, -27.145771], [-48.9780374, -27.1460179], [-48.9774967, -27.1461885], [-48.9768894, -27.1462566], [-48.976235, -27.146247], [-48.9759672, -27.1460641], [-48.9758183, -27.1458272], [-48.9757236, -27.1455622], [-48.9758636, -27.1451005], [-48.9762515, -27.1448717], [-48.9766777, -27.1447112], [-48.97731, -27.1441396], [-48.9773579, -27.1437528], [-48.9771326, -27.1435129], [-48.9771084, -27.1419578], [-48.977, -27.135], [-48.982, -27.121], [-48.971, -27.117], [-48.9691994, -27.1160131], [-48.9657799, -27.1128361], [-48.9611609, -27.111819], [-48.9581343, -27.1109592], [-48.9571211, -27.1097655], [-48.956632, -27.1079942], [-48.95501, -27.1062161], [-48.953, -27.103], [-48.9494451, -27.0961883], [-48.9511747, -27.0880355], [-48.9510243, -27.0857157], [-48.9507832, -27.085181], [-48.9493881, -27.0846776], [-48.9476749, -27.0846466], [-48.9464638, -27.0841422], [-48.9463575, -27.0838674], [-48.9475152, -27.0824599], [-48.9483099, -27.0818097], [-48.9497122, -27.0809306], [-48.9508725, -27.0799273], [-48.9520315, -27.0770426], [-48.9522022, -27.0761832], [-48.9520056, -27.0751634], [-48.951348, -27.0745291], [-48.9505852, -27.073239], [-48.9506517, -27.0721003], [-48.9507031, -27.0710758], [-48.950896, -27.0704653], [-48.9506593, -27.0694948], [-48.9498499, -27.0686098], [-48.9494046, -27.0683068], [-48.946317, -27.0674612], [-48.9450337, -27.0662928], [-48.944837, -27.066439], [-48.9438692, -27.0654323], [-48.9422681, -27.0636728], [-48.9417494, -27.0632747], [-48.9393983, -27.061559], [-48.9382725, -27.0610409], [-48.936254, -27.060725], [-48.9358328, -27.0606536], [-48.9354209, -27.0604325], [-48.9351019, -27.060073], [-48.9349697, -27.0595804], [-48.9349483, -27.0592154], [-48.939, -27.054], [-48.935, -27.049], [-48.93, -27.05], [-48.9277911, -27.0482329], [-48.925, -27.046], [-48.935, -27.033], [-48.935, -27.028], [-48.9269966, -27.0199967], [-48.926, -27.019], [-48.918, -27.02], [-48.913, -27.02], [-48.909, -27.011], [-48.895, -27.011], [-48.8889664, -27.0032579], [-48.8884388, -27.0025725], [-48.888, -27.002], [-48.883, -27.001], [-48.8818755, -26.9998942], [-48.8788872, -26.998907], [-48.871, -26.999], [-48.866, -27.003], [-48.869, -27.012], [-48.855, -27.025], [-48.8519741, -27.0266265], [-48.8524435, -27.0269834], [-48.8529612, -27.0276395], [-48.8533045, -27.0280887], [-48.8537444, -27.028471], [-48.8540662, -27.0287864], [-48.8544042, -27.0290755], [-48.855182, -27.0298568], [-48.8554234, -27.0302486], [-48.8558365, -27.0307073], [-48.8561476, -27.0310132], [-48.8563729, -27.0312425], [-48.8565124, -27.0315292], [-48.8565661, -27.031835], [-48.8566519, -27.0322077], [-48.8566733, -27.0324945], [-48.8569067, -27.0329183], [-48.8571132, -27.0332877], [-48.8572849, -27.0334214], [-48.8578321, -27.033517], [-48.8585938, -27.0335457], [-48.8596962, -27.0333292], [-48.8602434, -27.0332241], [-48.8607905, -27.0331285], [-48.8611446, -27.0331476], [-48.8614262, -27.0331443], [-48.8622175, -27.0331476], [-48.8627861, -27.0332145], [-48.8631616, -27.0333101], [-48.8637092, -27.0334486], [-48.8637543, -27.033597], [-48.8637567, -27.0337141], [-48.8638165, -27.0338548], [-48.8638261, -27.0339357], [-48.8637567, -27.0340167], [-48.8635941, -27.0340401], [-48.8634529, -27.0340465], [-48.8632066, -27.0341552], [-48.8630385, -27.0342627], [-48.8629668, -27.0344054], [-48.8628822, -27.034611], [-48.8627419, -27.034855], [-48.8627371, -27.0350617], [-48.8627656, -27.0353232], [-48.8629246, -27.0356727], [-48.8628772, -27.0357481], [-48.8628772, -27.0358776], [-48.8628738, -27.0361397], [-48.8629753, -27.0363718], [-48.8630607, -27.0365863], [-48.8630956, -27.0367439], [-48.8631763, -27.0376933], [-48.8638035, -27.0378484], [-48.8641583, -27.0379895], [-48.8641013, -27.0380629], [-48.8640189, -27.0381555], [-48.8640126, -27.0382147], [-48.8640395, -27.0383445], [-48.8641298, -27.0383817], [-48.8641393, -27.0384212], [-48.8641067, -27.0386574], [-48.8640999, -27.0387925], [-48.8641234, -27.0389743], [-48.8639784, -27.0391203], [-48.8638094, -27.039266], [-48.8636027, -27.0394357], [-48.8633144, -27.0394385], [-48.8631607, -27.0394464], [-48.8631012, -27.0394732], [-48.8630262, -27.0395457], [-48.8630104, -27.0396388], [-48.8630009, -27.0398025], [-48.8628583, -27.0399661], [-48.8626936, -27.040031], [-48.862532, -27.0400846], [-48.8625415, -27.040347], [-48.8626699, -27.0436197], [-48.8626794, -27.0436621], [-48.8626446, -27.0436931], [-48.8624767, -27.0436874], [-48.8619414, -27.0436169], [-48.8616119, -27.043569], [-48.8615517, -27.0435901], [-48.8614773, -27.0435845], [-48.8613849, -27.0436503], [-48.8609969, -27.0438943], [-48.8609256, -27.0439598], [-48.8608232, -27.0439921], [-48.8606616, -27.0439357], [-48.8605856, -27.0438539], [-48.8604621, -27.0439019], [-48.8603829, -27.0438116], [-48.8602214, -27.0438708], [-48.8601422, -27.0438849], [-48.8600281, -27.0438342], [-48.8599584, -27.0438821], [-48.8598381, -27.0438483], [-48.8596829, -27.0438624], [-48.8596195, -27.0439498], [-48.8596581, -27.0440402], [-48.859636, -27.0442941], [-48.8596233, -27.0444887], [-48.8595948, -27.0445536], [-48.8594997, -27.0446467], [-48.8592938, -27.0447596], [-48.8590848, -27.0448583], [-48.8589676, -27.0448894], [-48.8586825, -27.0448329], [-48.8585051, -27.044816], [-48.8584259, -27.0448922], [-48.8582707, -27.0451404], [-48.8582105, -27.0452815], [-48.858163, -27.0453944], [-48.8579254, -27.0456088], [-48.8577956, -27.0456906], [-48.8576784, -27.045857], [-48.8575928, -27.0459981], [-48.8569783, -27.045874], [-48.856789, -27.0458577], [-48.8566367, -27.0458378], [-48.8564888, -27.0458418], [-48.8563903, -27.045746], [-48.8561887, -27.0456902], [-48.8560185, -27.0458178], [-48.8558438, -27.0459216], [-48.8555123, -27.0462088], [-48.8553934, -27.0463239], [-48.8554003, -27.0464442], [-48.8553689, -27.0465879], [-48.8552973, -27.0467036], [-48.8551763, -27.0468432], [-48.8551405, -27.0470267], [-48.8550016, -27.0471385], [-48.8549702, -27.0473539], [-48.8549299, -27.0474936], [-48.8548403, -27.0476172], [-48.8548179, -27.0477688], [-48.8547361, -27.047807], [-48.8547582, -27.0479875], [-48.8547234, -27.0481004], [-48.8547677, -27.0482302], [-48.8549673, -27.0483345], [-48.8551444, -27.0483773], [-48.8553952, -27.0483289], [-48.8555375, -27.0484333], [-48.8556072, -27.0485066], [-48.855623, -27.0487154], [-48.855623, -27.0489637], [-48.8557054, -27.0490539], [-48.8558796, -27.0490116], [-48.8559873, -27.0490962], [-48.8559176, -27.0492994], [-48.8557814, -27.0493896], [-48.8556705, -27.0493755], [-48.8554931, -27.0494912], [-48.8554013, -27.0494686], [-48.8553062, -27.0493727], [-48.8552302, -27.049336], [-48.8551479, -27.0493868], [-48.8551479, -27.0495307], [-48.8551985, -27.0497677], [-48.8550465, -27.0499539], [-48.8548944, -27.0499369], [-48.8547519, -27.0499228], [-48.8546189, -27.0499821], [-48.8545333, -27.0501401], [-48.8545682, -27.0502219], [-48.8546157, -27.0502755], [-48.8545808, -27.0503827], [-48.8546442, -27.0503996], [-48.8546759, -27.0503686], [-48.8547107, -27.0504278], [-48.8547076, -27.0505096], [-48.8548374, -27.0506422], [-48.8549103, -27.0507353], [-48.8549039, -27.0509018], [-48.85498, -27.0510372], [-48.8550085, -27.0511274], [-48.8549705, -27.0512403], [-48.855037, -27.051308], [-48.8550085, -27.0514293], [-48.8549388, -27.0515365], [-48.8548818, -27.0516606], [-48.8548818, -27.0517481], [-48.8548976, -27.0518327], [-48.8548754, -27.0519681], [-48.8547994, -27.0520104], [-48.8547836, -27.0521402], [-48.8548754, -27.0521628], [-48.85498, -27.0520838], [-48.8550497, -27.0520923], [-48.855075, -27.0521769], [-48.8550908, -27.0523123], [-48.8550592, -27.0524082], [-48.854961, -27.0524223], [-48.8548818, -27.0524421], [-48.8547741, -27.0524392], [-48.8546189, -27.0523659], [-48.8544446, -27.0523687], [-48.8543845, -27.0524787], [-48.8542071, -27.0525464], [-48.8540297, -27.0525972], [-48.8539093, -27.0526819], [-48.8537288, -27.0527693], [-48.853545, -27.0528652], [-48.8534896, -27.0529104], [-48.8534342, -27.0529555], [-48.853362, -27.0529873], [-48.8532489, -27.0530644], [-48.8531952, -27.0531322], [-48.8530765, -27.053204], [-48.8530272, -27.0532858], [-48.85296, -27.0533277], [-48.852893, -27.0533636], [-48.8527606, -27.0534115], [-48.8526935, -27.0535232], [-48.852633, -27.0537147], [-48.8524784, -27.0539401], [-48.8524695, -27.053996], [-48.8524004, -27.053996], [-48.8523086, -27.0540977], [-48.8522145, -27.0541077], [-48.8520532, -27.0541037], [-48.8520308, -27.0541715], [-48.8519368, -27.0542054], [-48.8518203, -27.0542253], [-48.8517262, -27.0543151], [-48.8517195, -27.0544527], [-48.8517195, -27.0545465], [-48.8518225, -27.0545485], [-48.8518965, -27.0545565], [-48.8519368, -27.0546622], [-48.8518315, -27.0547599], [-48.8517329, -27.0549155], [-48.8517105, -27.0550093], [-48.851715, -27.055135], [-48.8517218, -27.0552649], [-48.8516569, -27.0553185], [-48.8515618, -27.0553538], [-48.8515143, -27.0553453], [-48.8514985, -27.0554031], [-48.8514399, -27.0554215], [-48.8512783, -27.0555625], [-48.8512118, -27.0556302], [-48.8510677, -27.0557882], [-48.8510598, -27.0558742], [-48.8509806, -27.0559264], [-48.8508761, -27.0559701], [-48.8508033, -27.0560366], [-48.8508212, -27.0561383], [-48.8508369, -27.0562121], [-48.8507652, -27.0562181], [-48.8507406, -27.056244], [-48.8506936, -27.056228], [-48.8506309, -27.0563417], [-48.8505659, -27.0564395], [-48.8505592, -27.0565412], [-48.8506398, -27.0566928], [-48.8506309, -27.0567447], [-48.8505278, -27.0567447], [-48.8504539, -27.0567786], [-48.8504158, -27.0568644], [-48.8504584, -27.0569781], [-48.8504427, -27.0570319], [-48.8503083, -27.0570638], [-48.850165, -27.0570219], [-48.8500395, -27.05699], [-48.8499477, -27.057014], [-48.8498111, -27.0570918], [-48.8497976, -27.0571436], [-48.8497551, -27.0571476], [-48.8496968, -27.0571835], [-48.849605, -27.0572354], [-48.8495154, -27.0573271], [-48.8495154, -27.057395], [-48.8494773, -27.0575106], [-48.8493945, -27.0575366], [-48.8493004, -27.0575226], [-48.8492981, -27.0575825], [-48.8483744, -27.0595617], [-48.8476756, -27.0607744], [-48.847138, -27.0616999], [-48.8465646, -27.0632956], [-48.8458299, -27.0638701], [-48.8456866, -27.0651147], [-48.844934, -27.0675081], [-48.8436166, -27.0678539], [-48.841507, -27.068426], [-48.839429, -27.0700281], [-48.8385167, -27.0705697], [-48.8378072, -27.0714723], [-48.837, -27.073], [-48.8257235, -27.073], [-48.824, -27.073], [-48.808, -27.089], [-48.8047409, -27.0902675], [-48.79, -27.096], [-48.798, -27.104], [-48.7977306, -27.1044041], [-48.7943446, -27.1094832], [-48.794, -27.11], [-48.8023736, -27.1169781], [-48.806, -27.12], [-48.803, -27.127], [-48.812, -27.135], [-48.821, -27.138], [-48.8235386, -27.1401761], [-48.823585, -27.1402159], [-48.842, -27.156], [-48.8476622, -27.1578017], [-48.864, -27.163], [-48.8655, -27.1645], [-48.867, -27.166], [-48.864, -27.168], [-48.872, -27.175], [-48.8723773, -27.1746772], [-48.8724977, -27.1742207], [-48.8727815, -27.17398], [-48.8728507, -27.1739213], [-48.8729114, -27.1739517], [-48.879, -27.177], [-48.882, -27.183], [-48.894, -27.182], [-48.898, -27.19], [-48.906, -27.189], [-48.914, -27.197], [-48.931, -27.201], [-48.934, -27.203], [-48.932, -27.205], [-48.934, -27.212], [-48.935, -27.212], [-48.9351694, -27.212081], [-48.958, -27.223], [-48.971, -27.237], [-48.986, -27.247], [-48.9954547, -27.247], [-48.996, -27.247], [-49.004, -27.253], [-49.021, -27.256], [-49.023, -27.242], [-49.008, -27.232], [-49.008, -27.201], [-48.9952828, -27.1894943], [-48.987, -27.182], [-48.9767922, -27.1611244], [-48.989, -27.153], [-48.9932106, -27.1540527], [-49.005, -27.157], [-49.007, -27.164], [-49.0176459, -27.1638417], [-49.0185594, -27.1625314], [-49.0194728, -27.161387], [-49.0202092, -27.1612626], [-49.0214676, -27.1611713], [-49.0222785, -27.1608562], [-49.0224369, -27.1604001], [-49.0221293, -27.1599025], [-49.0213837, -27.1595044], [-49.020377, -27.1592307], [-49.0197432, -27.1587165], [-49.019622, -27.1581692], [-49.0196686, -27.1577047], [-49.0202931, -27.1572818], [-49.022148, -27.1563114], [-49.0226554, -27.1557601], [-49.0230335, -27.1553494], [-49.0233318, -27.1547688], [-49.0231919, -27.1543873], [-49.0228682, -27.1540821], [-49.0222878, -27.1537819], [-49.0215235, -27.1535994], [-49.0203677, -27.153475], [-49.0199109, -27.1535331], [-49.0197245, -27.1540141], [-49.0198364, -27.1552416], [-49.0197338, -27.1555235], [-49.0191186, -27.1556977], [-49.0184009, -27.1556645], [-49.0177485, -27.1553245], [-49.0170494, -27.1545698], [-49.0161918, -27.1534584], [-49.01553, -27.1521563], [-49.01553, -27.1515425], [-49.0153995, -27.1511195], [-49.0147191, -27.1506966], [-49.014514, -27.1502902], [-49.0145327, -27.1499252], [-49.014803, -27.149552], [-49.0162384, -27.1486728], [-49.0170494, -27.148001], [-49.0178976, -27.147495], [-49.0197245, -27.1469725], [-49.0205821, -27.1467817], [-49.0210667, -27.1464085], [-49.0213743, -27.1454961], [-49.0214023, -27.1449238]]]]}}]}